{"type":"FeatureCollection","features":[{"type":"Feature","geometry":{"type":"Point","coordinates":[20.4178381,44.8215015]},"properties":{"id":"node/2112218144","name":"Mozzart","kind":"bookmaker"}},{"type":"Feature","geometry":{"type":"Point","coordinates":[20.4203711,44.8160032]},"properties":{"id":"node/2126288587","name":"MaxBet","kind":"bookmaker"}},{"type":"Feature","geometry":{"type":"Point","coordinates":[20.4821186,44.7613612]},"properties":{"id":"node/2793644467","name":"Meridianbet","kind":"bookmaker","address":"Саве Машковића 3"}},{"type":"Feature","geometry":{"type":"Point","coordinates":[20.3679366,44.8498886]},"properties":{"id":"node/3078627578","name":"Балкан Бет","kind":"bookmaker"}},{"type":"Feature","geometry":{"type":"Point","coordinates":[20.4798992,44.7675722]},"properties":{"id":"node/3187161063","name":"Kladionica","kind":"bookmaker"}},{"type":"Feature","geometry":{"type":"Point","coordinates":[20.4750134,44.8152574]},"properties":{"id":"node/3723968534","name":"Admiral","kind":"slots"}},{"type":"Feature","geometry":{"type":"Point","coordinates":[20.37717,44.7978538]},"properties":{"id":"node/3889116915","name":"Soccer bet","kind":"bookmaker","address":"Јурија Гагарина 221"}},{"type":"Feature","geometry":{"type":"Point","coordinates":[20.4779249,44.7606817]},"properties":{"id":"node/3952566818","name":"Soccerbet","kind":"bookmaker","address":"Црнотравска 7-9"}},{"type":"Feature","geometry":{"type":"Point","coordinates":[20.5509739,44.7603684]},"properties":{"id":"node/4082673979","name":"Mozzart","kind":"bookmaker"}},{"type":"Feature","geometry":{"type":"Point","coordinates":[20.4598993,44.814499]},"properties":{"id":"node/4089986378","name":"Balkan Bet","kind":"bookmaker","address":"Теразије 4"}},{"type":"Feature","geometry":{"type":"Point","coordinates":[20.4128814,44.8285082]},"properties":{"id":"node/4709013289","name":"Slots","kind":"casino"}},{"type":"Feature","geometry":{"type":"Point","coordinates":[20.3733172,44.8586133]},"properties":{"id":"node/4874850023","name":"Mozzart","kind":"bookmaker","address":"Милице Шуваковић 2ф"}},{"type":"Feature","geometry":{"type":"Point","coordinates":[20.3728998,44.8583457]},"properties":{"id":"node/4879231421","name":"Атлантик","kind":"bookmaker"}},{"type":"Feature","geometry":{"type":"Point","coordinates":[20.3694209,44.8568727]},"properties":{"id":"node/4885887521","name":"PinnBet","kind":"bookmaker"}},{"type":"Feature","geometry":{"type":"Point","coordinates":[20.4312625,44.7401824]},"properties":{"id":"node/4975162322","name":"Kladionica","kind":"bookmaker"}},{"type":"Feature","geometry":{"type":"Point","coordinates":[20.4590021,44.7931011]},"properties":{"id":"node/5035697226","name":"Дагон","kind":"bookmaker","address":"Звечанска 60/2"}},{"type":"Feature","geometry":{"type":"Point","coordinates":[20.3789475,44.805563]},"properties":{"id":"node/5073848821","name":"Balkan Bet","kind":"bookmaker","address":"Нехруова 63a"}},{"type":"Feature","geometry":{"type":"Point","coordinates":[20.3739586,44.8036835]},"properties":{"id":"node/5396570608","name":"Admiral Club","kind":"casino"}},{"type":"Feature","geometry":{"type":"Point","coordinates":[20.5191508,44.784178]},"properties":{"id":"node/5591109009","name":"Soccer gambling","kind":"bookmaker"}},{"type":"Feature","geometry":{"type":"Point","coordinates":[20.455975,44.8203574]},"properties":{"id":"node/5846281327","name":"Адмирал Клуб","kind":"casino"}},{"type":"Feature","geometry":{"type":"Point","coordinates":[20.4673033,44.7864578]},"properties":{"id":"node/5846547692","name":"Kazino","kind":"casino"}},{"type":"Feature","geometry":{"type":"Point","coordinates":[20.4982549,44.7999653]},"properties":{"id":"node/5863187396","name":"Mozzart","kind":"bookmaker","address":"Димитрија Туцовића 146"}},{"type":"Feature","geometry":{"type":"Point","coordinates":[20.4954719,44.7972459]},"properties":{"id":"node/5893765244","name":"Mozzart","kind":"bookmaker"}},{"type":"Feature","geometry":{"type":"Point","coordinates":[20.4082886,44.8267765]},"properties":{"id":"node/5919213956","name":"Балкан Бет","kind":"bookmaker"}},{"type":"Feature","geometry":{"type":"Point","coordinates":[20.4511544,44.8016085]},"properties":{"id":"node/6037062924","name":"Soccer","kind":"slots"}},{"type":"Feature","geometry":{"type":"Point","coordinates":[20.4975163,44.7752902]},"properties":{"id":"node/6172529561","name":"Mozzart","kind":"bookmaker","address":"Медаковићева 96"}},{"type":"Feature","geometry":{"type":"Point","coordinates":[20.5261248,44.7588942]},"properties":{"id":"node/6328538924","name":"Kazino","kind":"casino"}},{"type":"Feature","geometry":{"type":"Point","coordinates":[20.5032334,44.7942669]},"properties":{"id":"node/6380139519","name":"Mozzart","kind":"bookmaker","address":"Булевар краља Александра 265"}},{"type":"Feature","geometry":{"type":"Point","coordinates":[20.3711905,44.8477188]},"properties":{"id":"node/6466394268","name":"Балкан Бет","kind":"bookmaker"}},{"type":"Feature","geometry":{"type":"Point","coordinates":[20.6472293,44.8720292]},"properties":{"id":"node/6469645962","name":"Pinn Bet","kind":"bookmaker"}},{"type":"Feature","geometry":{"type":"Point","coordinates":[20.3634127,44.8469407]},"properties":{"id":"node/6472684089","name":"Таш","kind":"bookmaker"}},{"type":"Feature","geometry":{"type":"Point","coordinates":[20.6371897,44.8805586]},"properties":{"id":"node/6483795601","name":"Mozzart","kind":"bookmaker"}},{"type":"Feature","geometry":{"type":"Point","coordinates":[20.502893,44.7935082]},"properties":{"id":"node/6576498764","name":"MaxBet","kind":"bookmaker","address":"Булевар краља Александра 336"}},{"type":"Feature","geometry":{"type":"Point","coordinates":[20.4830809,44.8019855]},"properties":{"id":"node/6612287367","name":"Admiral Bet","kind":"bookmaker","address":"Булевар краља Александра 154"}},{"type":"Feature","geometry":{"type":"Point","coordinates":[20.3817369,44.8067312]},"properties":{"id":"node/6718636808","name":"Елдорадо","kind":"casino","address":"Нехруова 93A"}},{"type":"Feature","geometry":{"type":"Point","coordinates":[20.3829233,44.8072393]},"properties":{"id":"node/6718637583","name":"Mozzart","kind":"bookmaker"}},{"type":"Feature","geometry":{"type":"Point","coordinates":[20.3872243,44.8039559]},"properties":{"id":"node/6736063832","name":"Mozzart","kind":"bookmaker"}},{"type":"Feature","geometry":{"type":"Point","coordinates":[20.3745367,44.7987344]},"properties":{"id":"node/6751124767","name":"Меридијан","kind":"bookmaker"}},{"type":"Feature","geometry":{"type":"Point","coordinates":[20.3733068,44.7979478]},"properties":{"id":"node/6751152635","name":"Mozzart","kind":"bookmaker"}},{"type":"Feature","geometry":{"type":"Point","coordinates":[20.3561526,44.8072332]},"properties":{"id":"node/6772466085","name":"Max Bet","kind":"casino"}},{"type":"Feature","geometry":{"type":"Point","coordinates":[20.5013247,44.7889048]},"properties":{"id":"node/6774932093","name":"Kazino","kind":"casino"}},{"type":"Feature","geometry":{"type":"Point","coordinates":[20.4844779,44.7979867]},"properties":{"id":"node/6774938695","name":"Admiral klub","kind":"casino"}},{"type":"Feature","geometry":{"type":"Point","coordinates":[20.4070629,44.8064522]},"properties":{"id":"node/6775567337","name":"Моцартбет","kind":"bookmaker"}},{"type":"Feature","geometry":{"type":"Point","coordinates":[20.4551277,44.820275]},"properties":{"id":"node/6776805385","name":"Maxbet","kind":"casino"}},{"type":"Feature","geometry":{"type":"Point","coordinates":[20.473854,44.806422]},"properties":{"id":"node/6779716288","name":"Mozzart","kind":"bookmaker"}},{"type":"Feature","geometry":{"type":"Point","coordinates":[20.3797324,44.8494425]},"properties":{"id":"node/6780739186","name":"Vegas","kind":"casino"}},{"type":"Feature","geometry":{"type":"Point","coordinates":[20.4837666,44.7883832]},"properties":{"id":"node/6780758893","name":"Mozzart","kind":"bookmaker","address":"Крушевачка 30"}},{"type":"Feature","geometry":{"type":"Point","coordinates":[20.4633034,44.8134748]},"properties":{"id":"node/6782814300","name":"Таш бет","kind":"bookmaker"}},{"type":"Feature","geometry":{"type":"Point","coordinates":[20.4626162,44.8217813]},"properties":{"id":"node/6782867195","name":"Balkan bet","kind":"bookmaker"}},{"type":"Feature","geometry":{"type":"Point","coordinates":[20.4619606,44.822126]},"properties":{"id":"node/6782874210","name":"Mozzart","kind":"bookmaker"}},{"type":"Feature","geometry":{"type":"Point","coordinates":[20.4574808,44.8055002]},"properties":{"id":"node/6786355789","name":"Mozzart","kind":"bookmaker"}},{"type":"Feature","geometry":{"type":"Point","coordinates":[20.5044824,44.793622]},"properties":{"id":"node/6788244694","name":"Grand Slot Club","kind":"slots","address":"Булевар краља Александра 297"}},{"type":"Feature","geometry":{"type":"Point","coordinates":[20.466377,44.8010052]},"properties":{"id":"node/6788244785","name":"Balkan bet","kind":"bookmaker"}},{"type":"Feature","geometry":{"type":"Point","coordinates":[20.4235404,44.7421788]},"properties":{"id":"node/6790616187","name":"Grand Slot","kind":"casino"}},{"type":"Feature","geometry":{"type":"Point","coordinates":[20.4184593,44.7417311]},"properties":{"id":"node/6790616190","name":"Vegas","kind":"casino"}},{"type":"Feature","geometry":{"type":"Point","coordinates":[20.4649209,44.801315]},"properties":{"id":"node/6790627291","name":"Soccer","kind":"slots","address":"Бирчанинова 33"}},{"type":"Feature","geometry":{"type":"Point","coordinates":[20.4639524,44.8019857]},"properties":{"id":"node/6790627391","name":"Mozzart","kind":"bookmaker"}},{"type":"Feature","geometry":{"type":"Point","coordinates":[20.4201879,44.7383573]},"properties":{"id":"node/6790629291","name":"Maxbet","kind":"bookmaker"}},{"type":"Feature","geometry":{"type":"Point","coordinates":[20.3774628,44.7997172]},"properties":{"id":"node/6799909758","name":"Mozzart","kind":"bookmaker"}},{"type":"Feature","geometry":{"type":"Point","coordinates":[20.4778736,44.8017101]},"properties":{"id":"node/6840452389","name":"Max Bet","kind":"slots","address":"Синђелићева 32"}},{"type":"Feature","geometry":{"type":"Point","coordinates":[20.3746226,44.798745]},"properties":{"id":"node/6873773479","name":"Max Slot","kind":"slots"}},{"type":"Feature","geometry":{"type":"Point","coordinates":[20.4764859,44.7740389]},"properties":{"id":"node/6935395871","name":"Таш-бет","kind":"bookmaker"}},{"type":"Feature","geometry":{"type":"Point","coordinates":[20.4760478,44.7741458]},"properties":{"id":"node/6935413365","name":"Maxbet","kind":"bookmaker"}},{"type":"Feature","geometry":{"type":"Point","coordinates":[20.477652,44.7723942]},"properties":{"id":"node/6935431680","name":"Pinmbet","kind":"bookmaker"}},{"type":"Feature","geometry":{"type":"Point","coordinates":[20.353001,44.7989202]},"properties":{"id":"node/6967106920","name":"Олимп","kind":"bookmaker"}},{"type":"Feature","geometry":{"type":"Point","coordinates":[20.4590088,44.7766414]},"properties":{"id":"node/6982897844","name":"AdmiralBet","kind":"bookmaker"}},{"type":"Feature","geometry":{"type":"Point","coordinates":[20.4592397,44.7769893]},"properties":{"id":"node/6982897845","name":"Meridian","kind":"bookmaker"}},{"type":"Feature","geometry":{"type":"Point","coordinates":[20.4832569,44.8019202]},"properties":{"id":"node/6993504257","name":"BalkanBet","kind":"slots"}},{"type":"Feature","geometry":{"type":"Point","coordinates":[20.3880011,44.8013681]},"properties":{"id":"node/7055662985","name":"Mozzart","kind":"bookmaker"}},{"type":"Feature","geometry":{"type":"Point","coordinates":[20.3703764,44.8016088]},"properties":{"id":"node/7056615014","name":"Лавови","kind":"bookmaker"}},{"type":"Feature","geometry":{"type":"Point","coordinates":[20.3704567,44.8015043]},"properties":{"id":"node/7056620601","name":"Soccer","kind":"bookmaker"}},{"type":"Feature","geometry":{"type":"Point","coordinates":[20.3868043,44.8209386]},"properties":{"id":"node/7090309585","name":"Bet 365","kind":"casino"}},{"type":"Feature","geometry":{"type":"Point","coordinates":[20.4571949,44.8053454]},"properties":{"id":"node/7093040685","name":"Soccerbet","kind":"bookmaker"}},{"type":"Feature","geometry":{"type":"Point","coordinates":[20.4113259,44.8447392]},"properties":{"id":"node/7379557190","name":"Mozzart","kind":"bookmaker"}},{"type":"Feature","geometry":{"type":"Point","coordinates":[20.4862592,44.8011095]},"properties":{"id":"node/7657970068","name":"Slot Club","kind":"slots"}},{"type":"Feature","geometry":{"type":"Point","coordinates":[20.4839032,44.8020919]},"properties":{"id":"node/7657970075","name":"Mozzart","kind":"bookmaker"}},{"type":"Feature","geometry":{"type":"Point","coordinates":[20.4177808,44.7833261]},"properties":{"id":"node/7682222985","name":"Grand Slot Club","kind":"casino"}},{"type":"Feature","geometry":{"type":"Point","coordinates":[20.4705134,44.8060446]},"properties":{"id":"node/7682222986","name":"Grand slot club","kind":"casino","address":"Београдска 54"}},{"type":"Feature","geometry":{"type":"Point","coordinates":[20.4872093,44.7971665]},"properties":{"id":"node/7682223085","name":"Grand slot club","kind":"casino","address":"Јована Рајића 1-3"}},{"type":"Feature","geometry":{"type":"Point","coordinates":[20.4919448,44.7947842]},"properties":{"id":"node/7709519201","name":"MaxBet","kind":"bookmaker"}},{"type":"Feature","geometry":{"type":"Point","coordinates":[20.4929941,44.7943961]},"properties":{"id":"node/7709519202","name":"Soccer","kind":"bookmaker","address":"Војислава Илића 31"}},{"type":"Feature","geometry":{"type":"Point","coordinates":[20.4008151,44.8050396]},"properties":{"id":"node/7728538924","name":"Balkanbet","kind":"bookmaker"}},{"type":"Feature","geometry":{"type":"Point","coordinates":[20.399572,44.8053977]},"properties":{"id":"node/7728574010","name":"Grand slot","kind":"casino","address":"Јурија Гагарина 22k"}},{"type":"Feature","geometry":{"type":"Point","coordinates":[20.39958,44.8052851]},"properties":{"id":"node/7728589488","name":"SoccerBet","kind":"bookmaker","address":"Јурија Гагарина 22j"}},{"type":"Feature","geometry":{"type":"Point","coordinates":[20.4015611,44.8065258]},"properties":{"id":"node/7732185399","name":"Meridianbet","kind":"bookmaker","address":"Уроша Мартиновића 4"}},{"type":"Feature","geometry":{"type":"Point","coordinates":[20.4833744,44.8023163]},"properties":{"id":"node/7967780151","name":"Taš","kind":"bookmaker"}},{"type":"Feature","geometry":{"type":"Point","coordinates":[20.4925231,44.7984963]},"properties":{"id":"node/7968123464","name":"Planet Win 365","kind":"bookmaker","address":"Булевар краља Александра 173"}},{"type":"Feature","geometry":{"type":"Point","coordinates":[20.4885526,44.7997596]},"properties":{"id":"node/7968440522","name":"Admiral","kind":"slots","address":"Булевар краља Александра 206"}},{"type":"Feature","geometry":{"type":"Point","coordinates":[20.5048594,44.7929852]},"properties":{"id":"node/7981429391","name":"Soccerbet","kind":"bookmaker"}},{"type":"Feature","geometry":{"type":"Point","coordinates":[20.4092251,44.8052314]},"properties":{"id":"node/8019462611","name":"Meridianbet","kind":"bookmaker"}},{"type":"Feature","geometry":{"type":"Point","coordinates":[20.4200008,44.8163153]},"properties":{"id":"node/8023224956","name":"Planet Win 365","kind":"bookmaker"}},{"type":"Feature","geometry":{"type":"Point","coordinates":[20.4774141,44.803853]},"properties":{"id":"node/8231580067","name":"Mozzart","kind":"bookmaker","address":"Голсвордијева 33"}},{"type":"Feature","geometry":{"type":"Point","coordinates":[20.4609258,44.8140817]},"properties":{"id":"node/8369598348","name":"AdmiralBet","kind":"bookmaker"}},{"type":"Feature","geometry":{"type":"Point","coordinates":[20.4820876,44.7725199]},"properties":{"id":"node/8740095717","name":"Mozzart","kind":"bookmaker"}},{"type":"Feature","geometry":{"type":"Point","coordinates":[20.6400044,44.8693255]},"properties":{"id":"node/8954899717","name":"Admiral","kind":"slots"}},{"type":"Feature","geometry":{"type":"Point","coordinates":[20.4854383,44.7975853]},"properties":{"id":"node/9091313041","name":"Merkur","kind":"casino"}},{"type":"Feature","geometry":{"type":"Point","coordinates":[20.4728366,44.8062905]},"properties":{"id":"node/9091313142","name":"Balkan Bet","kind":"casino"}},{"type":"Feature","geometry":{"type":"Point","coordinates":[20.4878242,44.7973955]},"properties":{"id":"node/9091313451","name":"Mozzart","kind":"bookmaker"}},{"type":"Feature","geometry":{"type":"Point","coordinates":[20.4849252,44.7981476]},"properties":{"id":"node/9091313620","name":"Kazino","kind":"casino"}},{"type":"Feature","geometry":{"type":"Point","coordinates":[20.4894451,44.7962969]},"properties":{"id":"node/9091313621","name":"Kazino","kind":"casino"}},{"type":"Feature","geometry":{"type":"Point","coordinates":[20.4707162,44.8019867]},"properties":{"id":"node/9091313728","name":"Soccerbet","kind":"casino"}},{"type":"Feature","geometry":{"type":"Point","coordinates":[20.4148006,44.8440573]},"properties":{"id":"node/9091314034","name":"Maxbet","kind":"bookmaker"}},{"type":"Feature","geometry":{"type":"Point","coordinates":[20.4716095,44.8196675]},"properties":{"id":"node/9091317518","name":"Mozzart","kind":"bookmaker"}},{"type":"Feature","geometry":{"type":"Point","coordinates":[20.3350247,44.8009044]},"properties":{"id":"node/9106430896","name":"Треф","kind":"bookmaker","address":"Сурчинска 233"}},{"type":"Feature","geometry":{"type":"Point","coordinates":[20.3362781,44.8013544]},"properties":{"id":"node/9114810612","name":"Mozzart","kind":"bookmaker"}},{"type":"Feature","geometry":{"type":"Point","coordinates":[20.3711629,44.8023698]},"properties":{"id":"node/9248290968","name":"Моцартбет","kind":"bookmaker","address":"Др Ивана Рибара 61b"}},{"type":"Feature","geometry":{"type":"Point","coordinates":[20.3504422,44.8056174]},"properties":{"id":"node/9248290978","name":"Mozzart","kind":"bookmaker"}},{"type":"Feature","geometry":{"type":"Point","coordinates":[20.5077665,44.7626719]},"properties":{"id":"node/9493140193","name":"Mozzart","kind":"bookmaker","address":"Миљана Миљанића 16"}},{"type":"Feature","geometry":{"type":"Point","coordinates":[20.639125,44.8713924]},"properties":{"id":"node/9558503578","name":"Mozzart","kind":"bookmaker"}},{"type":"Feature","geometry":{"type":"Point","coordinates":[20.6395863,44.8700209]},"properties":{"id":"node/9631418677","name":"MaxBet","kind":"bookmaker"}},{"type":"Feature","geometry":{"type":"Point","coordinates":[20.4879248,44.8461044]},"properties":{"id":"node/9810777883","name":"Soccer","kind":"bookmaker"}},{"type":"Feature","geometry":{"type":"Point","coordinates":[20.4824249,44.7936869]},"properties":{"id":"node/9860909817","name":"Mozzart","kind":"bookmaker"}},{"type":"Feature","geometry":{"type":"Point","coordinates":[20.4784151,44.7938901]},"properties":{"id":"node/9860909917","name":"MaxBet","kind":"bookmaker"}},{"type":"Feature","geometry":{"type":"Point","coordinates":[20.4764756,44.7933767]},"properties":{"id":"node/9860910017","name":"Mozzart","kind":"bookmaker"}},{"type":"Feature","geometry":{"type":"Point","coordinates":[20.4873458,44.8039183]},"properties":{"id":"node/9860938217","name":"Soccer Bet","kind":"bookmaker"}},{"type":"Feature","geometry":{"type":"Point","coordinates":[20.4878823,44.8037094]},"properties":{"id":"node/9860938317","name":"MaxBet","kind":"bookmaker"}},{"type":"Feature","geometry":{"type":"Point","coordinates":[20.479742,44.7678106]},"properties":{"id":"node/9882823517","name":"Meridianbet","kind":"bookmaker"}},{"type":"Feature","geometry":{"type":"Point","coordinates":[20.476911,44.7727817]},"properties":{"id":"node/9882823518","name":"Kladionica","kind":"bookmaker"}},{"type":"Feature","geometry":{"type":"Point","coordinates":[20.4784206,44.7699012]},"properties":{"id":"node/9882823617","name":"Mozzart","kind":"bookmaker"}},{"type":"Feature","geometry":{"type":"Point","coordinates":[20.4747049,44.7763226]},"properties":{"id":"node/9882830617","name":"Kladionica","kind":"bookmaker"}},{"type":"Feature","geometry":{"type":"Point","coordinates":[20.4702656,44.806169]},"properties":{"id":"node/9882859018","name":"Soccer bet","kind":"bookmaker"}},{"type":"Feature","geometry":{"type":"Point","coordinates":[20.4708539,44.8072683]},"properties":{"id":"node/9882859019","name":"Admiral","kind":"bookmaker"}},{"type":"Feature","geometry":{"type":"Point","coordinates":[20.4709187,44.8063713]},"properties":{"id":"node/9882859020","name":"Mozzart bet","kind":"bookmaker"}},{"type":"Feature","geometry":{"type":"Point","coordinates":[20.4840542,44.8061162]},"properties":{"id":"node/9883488117","name":"Kladionica","kind":"bookmaker"}},{"type":"Feature","geometry":{"type":"Point","coordinates":[20.4721378,44.8014122]},"properties":{"id":"node/9887324017","name":"Meridianbet","kind":"bookmaker"}},{"type":"Feature","geometry":{"type":"Point","coordinates":[20.4663504,44.8008719]},"properties":{"id":"node/9887345517","name":"MaxBet","kind":"bookmaker"}},{"type":"Feature","geometry":{"type":"Point","coordinates":[20.3834125,44.807076]},"properties":{"id":"node/9985993071","name":"Адмирал клуб","kind":"casino","address":"Јапанска 3a"}},{"type":"Feature","geometry":{"type":"Point","coordinates":[20.3808237,44.8024886]},"properties":{"id":"node/9991553652","name":"Balkan bet","kind":"bookmaker","address":"Јурија Гагарина 76c"}},{"type":"Feature","geometry":{"type":"Point","coordinates":[20.5075959,44.7729543]},"properties":{"id":"node/10075842125","name":"MaxBet","kind":"bookmaker"}},{"type":"Feature","geometry":{"type":"Point","coordinates":[20.4047087,44.8056234]},"properties":{"id":"node/10079843091","name":"Favorit","kind":"slots"}},{"type":"Feature","geometry":{"type":"Point","coordinates":[20.4673897,44.8090435]},"properties":{"id":"node/10108664774","name":"Mozzartbet","kind":"bookmaker"}},{"type":"Feature","geometry":{"type":"Point","coordinates":[20.3817604,44.8023638]},"properties":{"id":"node/10166842819","name":"Mozzart","kind":"bookmaker","address":"Јурија Гагарина 76k"}},{"type":"Feature","geometry":{"type":"Point","coordinates":[20.4523654,44.8015662]},"properties":{"id":"node/10830130434","name":"Planet win 365","kind":"slots"}},{"type":"Feature","geometry":{"type":"Point","coordinates":[20.3881341,44.8040739]},"properties":{"id":"node/10931176548","name":"Soccerbet","kind":"bookmaker"}},{"type":"Feature","geometry":{"type":"Point","coordinates":[20.4330811,44.7499934]},"properties":{"id":"node/11190267556","name":"Balkan Bet","kind":"bookmaker","address":"Кнеза Вишеслава 29ž"}},{"type":"Feature","geometry":{"type":"Point","coordinates":[20.4332974,44.7501895]},"properties":{"id":"node/11195572244","name":"Winner Club Dragulj","kind":"casino","address":"Кнеза Вишеслава 29đ"}},{"type":"Feature","geometry":{"type":"Point","coordinates":[20.4309143,44.7485687]},"properties":{"id":"node/11222430520","name":"SoccerBet","kind":"casino"}},{"type":"Feature","geometry":{"type":"Point","coordinates":[20.4305447,44.7481926]},"properties":{"id":"node/11225290385","name":"SoccerBet","kind":"bookmaker"}},{"type":"Feature","geometry":{"type":"Point","coordinates":[20.4536926,44.8027112]},"properties":{"id":"node/11445998094","name":"Mozzart","kind":"bookmaker","address":"Сарајевска 40"}},{"type":"Feature","geometry":{"type":"Point","coordinates":[20.4730128,44.8009456]},"properties":{"id":"node/11446216248","name":"MaxBet","kind":"casino"}},{"type":"Feature","geometry":{"type":"Point","coordinates":[20.4704928,44.8025248]},"properties":{"id":"node/11446255963","name":"Mozzart","kind":"bookmaker","address":"Његошева 46"}},{"type":"Feature","geometry":{"type":"Point","coordinates":[20.4275959,44.8136307]},"properties":{"id":"node/11581791647","name":"Balkanbet","kind":"bookmaker"}},{"type":"Feature","geometry":{"type":"Point","coordinates":[20.4274846,44.8136807]},"properties":{"id":"node/11581804113","name":"Mozzart","kind":"bookmaker"}},{"type":"Feature","geometry":{"type":"Point","coordinates":[20.4309049,44.8121048]},"properties":{"id":"node/11581901866","name":"Maxbet","kind":"bookmaker"}},{"type":"Feature","geometry":{"type":"Point","coordinates":[20.4547718,44.8822918]},"properties":{"id":"node/11659931763","name":"Merkur X Tip","kind":"slots"}},{"type":"Feature","geometry":{"type":"Point","coordinates":[20.456099,44.8817263]},"properties":{"id":"node/11659953773","name":"Winner","kind":"slots"}},{"type":"Feature","geometry":{"type":"Point","coordinates":[20.4799429,44.8108251]},"properties":{"id":"node/11704606894","name":"Mozzart","kind":"bookmaker"}},{"type":"Feature","geometry":{"type":"Point","coordinates":[20.4286504,44.7490257]},"properties":{"id":"node/11705170241","name":"AdmiralBet","kind":"bookmaker"}},{"type":"Feature","geometry":{"type":"Point","coordinates":[20.4793402,44.8115254]},"properties":{"id":"node/11708112517","name":"Balkanbet","kind":"bookmaker"}},{"type":"Feature","geometry":{"type":"Point","coordinates":[20.4660318,44.7997374]},"properties":{"id":"node/11739208914","name":"Grand Slot","kind":"casino","address":"Булевар ослобођења 29"}},{"type":"Feature","geometry":{"type":"Point","coordinates":[20.5157056,44.785594]},"properties":{"id":"node/11745364392","name":"Planetwin365","kind":"casino"}},{"type":"Feature","geometry":{"type":"Point","coordinates":[20.5228041,44.7821636]},"properties":{"id":"node/11854312537","name":"Maxbet","kind":"bookmaker"}},{"type":"Feature","geometry":{"type":"Point","coordinates":[20.4608855,44.8178637]},"properties":{"id":"node/11949759395","name":"Mozzart","kind":"bookmaker"}},{"type":"Feature","geometry":{"type":"Point","coordinates":[20.4752398,44.7598095]},"properties":{"id":"node/11964174568","name":"Mozzart","kind":"bookmaker"}},{"type":"Feature","geometry":{"type":"Point","coordinates":[20.4196791,44.822091]},"properties":{"id":"node/11978931897","name":"Meridianbet","kind":"bookmaker","address":"Булевар Михајла Пупина 10b"}},{"type":"Feature","geometry":{"type":"Point","coordinates":[20.3957768,44.8518562]},"properties":{"id":"node/11981201156","name":"Meridianbet","kind":"bookmaker","address":"Цара Душана 118"}},{"type":"Feature","geometry":{"type":"Point","coordinates":[20.3239998,44.8716783]},"properties":{"id":"node/11981231916","name":"Meridianbet","kind":"bookmaker"}},{"type":"Feature","geometry":{"type":"Point","coordinates":[20.3833806,44.810086]},"properties":{"id":"node/11981245657","name":"Meridianbet","kind":"bookmaker","address":"Гандијева 5"}},{"type":"Feature","geometry":{"type":"Point","coordinates":[20.3746838,44.798644]},"properties":{"id":"node/11981264140","name":"Meridianbet","kind":"bookmaker"}},{"type":"Feature","geometry":{"type":"Point","coordinates":[20.5391079,44.7907491]},"properties":{"id":"node/11981268847","name":"Meridianbet","kind":"bookmaker"}},{"type":"Feature","geometry":{"type":"Point","coordinates":[20.3881632,44.8011056]},"properties":{"id":"node/11981272971","name":"Meridianbet","kind":"bookmaker","address":"Гандијева 148"}},{"type":"Feature","geometry":{"type":"Point","coordinates":[20.4763874,44.7561383]},"properties":{"id":"node/11981290026","name":"Meridianbet","kind":"bookmaker"}},{"type":"Feature","geometry":{"type":"Point","coordinates":[20.5323231,44.8160628]},"properties":{"id":"node/11981293078","name":"Meridianbet","kind":"bookmaker","address":"Вишњички венац 1r"}},{"type":"Feature","geometry":{"type":"Point","coordinates":[20.4877778,44.8037627]},"properties":{"id":"node/11981294973","name":"Meridianbet","kind":"bookmaker"}},{"type":"Feature","geometry":{"type":"Point","coordinates":[20.4271115,44.7448009]},"properties":{"id":"node/11981313411","name":"Meridianbet","kind":"bookmaker"}},{"type":"Feature","geometry":{"type":"Point","coordinates":[20.4198439,44.781709]},"properties":{"id":"node/11981370942","name":"Meridianbet","kind":"bookmaker"}},{"type":"Feature","geometry":{"type":"Point","coordinates":[20.3969267,44.8411929]},"properties":{"id":"node/11981385042","name":"Meridianbet","kind":"bookmaker"}},{"type":"Feature","geometry":{"type":"Point","coordinates":[20.4578784,44.8850669]},"properties":{"id":"node/11982163207","name":"Max Bet","kind":"bookmaker"}},{"type":"Feature","geometry":{"type":"Point","coordinates":[20.4567873,44.8845356]},"properties":{"id":"node/11982163222","name":"Soccer Bet","kind":"bookmaker"}},{"type":"Feature","geometry":{"type":"Point","coordinates":[20.4549795,44.8829812]},"properties":{"id":"node/11982163238","name":"Mozzart Premium Slot","kind":"slots","address":"Братства и јединства 28c"}},{"type":"Feature","geometry":{"type":"Point","coordinates":[20.4547944,44.8828255]},"properties":{"id":"node/11982163240","name":"Soccer Bet","kind":"bookmaker"}},{"type":"Feature","geometry":{"type":"Point","coordinates":[20.4536244,44.8812165]},"properties":{"id":"node/11984177791","name":"Admiral Bet","kind":"bookmaker"}},{"type":"Feature","geometry":{"type":"Point","coordinates":[20.4539531,44.8815588]},"properties":{"id":"node/11984177795","name":"Balkan Bet","kind":"bookmaker"}},{"type":"Feature","geometry":{"type":"Point","coordinates":[20.5177961,44.7846225]},"properties":{"id":"node/12002693769","name":"Mozzart","kind":"slots"}},{"type":"Feature","geometry":{"type":"Point","coordinates":[20.5179771,44.7844054]},"properties":{"id":"node/12002693775","name":"Tron","kind":"slots"}},{"type":"Feature","geometry":{"type":"Point","coordinates":[20.4133187,44.8309621]},"properties":{"id":"node/12017433351","name":"Meridianbet","kind":"bookmaker"}},{"type":"Feature","geometry":{"type":"Point","coordinates":[20.4527931,44.8809098]},"properties":{"id":"node/12017446756","name":"Meridianbet","kind":"bookmaker"}},{"type":"Feature","geometry":{"type":"Point","coordinates":[20.4635731,44.8763395]},"properties":{"id":"node/12017447119","name":"Meridianbet","kind":"bookmaker"}},{"type":"Feature","geometry":{"type":"Point","coordinates":[20.453866,44.80253]},"properties":{"id":"node/12017451407","name":"Meridianbet","kind":"bookmaker"}},{"type":"Feature","geometry":{"type":"Point","coordinates":[20.3826026,44.8071003]},"properties":{"id":"node/12017453616","name":"Meridianbet","kind":"bookmaker"}},{"type":"Feature","geometry":{"type":"Point","coordinates":[20.3723465,44.7267796]},"properties":{"id":"node/12017453660","name":"Meridianbet","kind":"bookmaker"}},{"type":"Feature","geometry":{"type":"Point","coordinates":[20.4531131,44.7528257]},"properties":{"id":"node/12017460315","name":"Meridianbet","kind":"bookmaker","address":"Канарево брдо 20v"}},{"type":"Feature","geometry":{"type":"Point","coordinates":[20.4762548,44.8002679]},"properties":{"id":"node/12017463113","name":"Meridianbet","kind":"bookmaker","address":"Каленићева 2"}},{"type":"Feature","geometry":{"type":"Point","coordinates":[20.5065805,44.7826048]},"properties":{"id":"node/12017466207","name":"Meridianbet","kind":"bookmaker"}},{"type":"Feature","geometry":{"type":"Point","coordinates":[20.4734376,44.7986532]},"properties":{"id":"node/12017471639","name":"Meridianbet","kind":"bookmaker","address":"Макензијева 79"}},{"type":"Feature","geometry":{"type":"Point","coordinates":[20.5273267,44.7916363]},"properties":{"id":"node/12017473766","name":"Meridianbet","kind":"bookmaker","address":"Миријевски венац 34g"}},{"type":"Feature","geometry":{"type":"Point","coordinates":[20.4877534,44.7612512]},"properties":{"id":"node/12017480460","name":"Meridianbet","kind":"bookmaker"}},{"type":"Feature","geometry":{"type":"Point","coordinates":[20.4267156,44.7267061]},"properties":{"id":"node/12017491178","name":"Meridianbet","kind":"bookmaker"}},{"type":"Feature","geometry":{"type":"Point","coordinates":[20.4507972,44.7483889]},"properties":{"id":"node/12017492082","name":"Meridianbet","kind":"bookmaker"}},{"type":"Feature","geometry":{"type":"Point","coordinates":[20.6486097,44.8705079]},"properties":{"id":"node/12017508967","name":"Meridianbet","kind":"bookmaker","address":"Војводе Радомира Путника 28"}},{"type":"Feature","geometry":{"type":"Point","coordinates":[20.4560223,44.8099211]},"properties":{"id":"node/12017515923","name":"Meridianbet","kind":"bookmaker"}},{"type":"Feature","geometry":{"type":"Point","coordinates":[20.4569564,44.8161508]},"properties":{"id":"node/12017520460","name":"Meridianbet","kind":"bookmaker"}},{"type":"Feature","geometry":{"type":"Point","coordinates":[20.414516,44.7597209]},"properties":{"id":"node/12017525018","name":"Meridianbet","kind":"bookmaker"}},{"type":"Feature","geometry":{"type":"Point","coordinates":[20.5036906,44.7392744]},"properties":{"id":"node/12017532643","name":"Meridianbet","kind":"bookmaker","address":"Војводе Степе 516"}},{"type":"Feature","geometry":{"type":"Point","coordinates":[20.4767878,44.8161686]},"properties":{"id":"node/12017554788","name":"Meridianbet","kind":"bookmaker"}},{"type":"Feature","geometry":{"type":"Point","coordinates":[20.4837223,44.8165555]},"properties":{"id":"node/12017556950","name":"Meridianbet","kind":"bookmaker"}},{"type":"Feature","geometry":{"type":"Point","coordinates":[20.4568186,44.8142077]},"properties":{"id":"node/12017557633","name":"Meridianbet","kind":"bookmaker"}},{"type":"Feature","geometry":{"type":"Point","coordinates":[20.4631555,44.8215097]},"properties":{"id":"node/12017560198","name":"Meridianbet","kind":"bookmaker"}},{"type":"Feature","geometry":{"type":"Point","coordinates":[20.3984456,44.8030453]},"properties":{"id":"node/12036455016","name":"Pinnbet","kind":"bookmaker"}},{"type":"Feature","geometry":{"type":"Point","coordinates":[20.4017788,44.800652]},"properties":{"id":"node/12042244206","name":"Mozzart","kind":"bookmaker"}},{"type":"Feature","geometry":{"type":"Point","coordinates":[20.4585574,44.8731401]},"properties":{"id":"node/12096220941","name":"Max Bet","kind":"bookmaker"}},{"type":"Feature","geometry":{"type":"Point","coordinates":[20.5223087,44.781865]},"properties":{"id":"node/12100201064","name":"Mozzart","kind":"bookmaker","address":"Булевар краља Александра 528"}},{"type":"Feature","geometry":{"type":"Point","coordinates":[20.4378899,44.745179]},"properties":{"id":"node/12100395177","name":"Mozzart Rakovica","kind":"bookmaker","address":"Пилота Михаила Петровића 5"}},{"type":"Feature","geometry":{"type":"Point","coordinates":[20.4514303,44.8789125]},"properties":{"id":"node/12100586347","name":"Mozzart","kind":"bookmaker","address":"Братства и јединства 84"}},{"type":"Feature","geometry":{"type":"Point","coordinates":[20.3977322,44.803057]},"properties":{"id":"node/12170303084","name":"Soccer Bet","kind":"bookmaker"}},{"type":"Feature","geometry":{"type":"Point","coordinates":[20.469554,44.7946046]},"properties":{"id":"node/12202228497","name":"Oktagon Bet","kind":"bookmaker"}},{"type":"Feature","geometry":{"type":"Point","coordinates":[20.4786692,44.7932894]},"properties":{"id":"node/12265996642","name":"Balkan Bet","kind":"casino"}},{"type":"Feature","geometry":{"type":"Point","coordinates":[20.3973541,44.8030191]},"properties":{"id":"node/12304309150","name":"Mozzart","kind":"bookmaker"}},{"type":"Feature","geometry":{"type":"Point","coordinates":[20.4693183,44.7958845]},"properties":{"id":"node/12309517118","name":"Mozzart","kind":"bookmaker","address":"Браничевска 7"}},{"type":"Feature","geometry":{"type":"Point","coordinates":[20.6408067,44.8657351]},"properties":{"id":"node/12391515885","name":"Mozzart","kind":"bookmaker"}},{"type":"Feature","geometry":{"type":"Point","coordinates":[20.460848,44.7753602]},"properties":{"id":"node/12478852677","name":"Kladionica","kind":"bookmaker"}},{"type":"Feature","geometry":{"type":"Point","coordinates":[20.4751709,44.8172218]},"properties":{"id":"node/12536405332","name":"Mozzart","kind":"bookmaker"}},{"type":"Feature","geometry":{"type":"Point","coordinates":[20.5171332,44.7854294]},"properties":{"id":"node/12536405333","name":"Mozzart","kind":"bookmaker"}},{"type":"Feature","geometry":{"type":"Point","coordinates":[20.4677251,44.8037191]},"properties":{"id":"node/12536405334","name":"Mozzart","kind":"bookmaker"}},{"type":"Feature","geometry":{"type":"Point","coordinates":[20.4202259,44.7846298]},"properties":{"id":"node/12536405341","name":"Mozzart","kind":"bookmaker"}},{"type":"Feature","geometry":{"type":"Point","coordinates":[20.4148258,44.8404668]},"properties":{"id":"node/12536405342","name":"Mozzart","kind":"bookmaker"}},{"type":"Feature","geometry":{"type":"Point","coordinates":[20.3664416,44.8472542]},"properties":{"id":"node/12536405343","name":"Mozzart","kind":"bookmaker"}},{"type":"Feature","geometry":{"type":"Point","coordinates":[20.3594497,44.8551938]},"properties":{"id":"node/12536405344","name":"Mozzart","kind":"bookmaker"}},{"type":"Feature","geometry":{"type":"Point","coordinates":[20.5389699,44.7903502]},"properties":{"id":"node/12536405389","name":"Mozzart","kind":"bookmaker"}},{"type":"Feature","geometry":{"type":"Point","coordinates":[20.4668265,44.813405]},"properties":{"id":"node/12536405390","name":"Mozzart","kind":"bookmaker"}},{"type":"Feature","geometry":{"type":"Point","coordinates":[20.5275811,44.7913134]},"properties":{"id":"node/12536405391","name":"Mozzart","kind":"bookmaker"}},{"type":"Feature","geometry":{"type":"Point","coordinates":[20.4557276,44.816809]},"properties":{"id":"node/12536405392","name":"Mozzart","kind":"bookmaker"}},{"type":"Feature","geometry":{"type":"Point","coordinates":[20.5066922,44.7825699]},"properties":{"id":"node/12536405393","name":"Mozzart","kind":"bookmaker"}},{"type":"Feature","geometry":{"type":"Point","coordinates":[20.5380151,44.8222636]},"properties":{"id":"node/12536405394","name":"Mozzart","kind":"bookmaker"}},{"type":"Feature","geometry":{"type":"Point","coordinates":[20.4794624,44.7854179]},"properties":{"id":"node/12536405396","name":"Mozzart","kind":"bookmaker"}},{"type":"Feature","geometry":{"type":"Point","coordinates":[20.4939142,44.7834742]},"properties":{"id":"node/12536405397","name":"Mozzart","kind":"bookmaker"}},{"type":"Feature","geometry":{"type":"Point","coordinates":[20.532268,44.816288]},"properties":{"id":"node/12536405398","name":"Mozzart","kind":"bookmaker"}},{"type":"Feature","geometry":{"type":"Point","coordinates":[20.4822484,44.7987513]},"properties":{"id":"node/12536405399","name":"Mozzart","kind":"bookmaker"}},{"type":"Feature","geometry":{"type":"Point","coordinates":[20.4762983,44.8001417]},"properties":{"id":"node/12536405400","name":"Mozzart","kind":"bookmaker"}},{"type":"Feature","geometry":{"type":"Point","coordinates":[20.4728162,44.7986476]},"properties":{"id":"node/12536408501","name":"Mozzart","kind":"bookmaker"}},{"type":"Feature","geometry":{"type":"Point","coordinates":[20.4611318,44.8251734]},"properties":{"id":"node/12536408502","name":"Mozzart","kind":"bookmaker"}},{"type":"Feature","geometry":{"type":"Point","coordinates":[20.523786,44.792661]},"properties":{"id":"node/12536408503","name":"Mozzart","kind":"bookmaker"}},{"type":"Feature","geometry":{"type":"Point","coordinates":[20.4744146,44.81366]},"properties":{"id":"node/12536408504","name":"Mozzart","kind":"bookmaker"}},{"type":"Feature","geometry":{"type":"Point","coordinates":[20.4682105,44.8171134]},"properties":{"id":"node/12536408505","name":"Mozzart","kind":"bookmaker"}},{"type":"Feature","geometry":{"type":"Point","coordinates":[20.5149074,44.8145424]},"properties":{"id":"node/12536408506","name":"Mozzart","kind":"bookmaker"}},{"type":"Feature","geometry":{"type":"Point","coordinates":[20.5159458,44.8093558]},"properties":{"id":"node/12536408507","name":"Mozzart","kind":"bookmaker"}},{"type":"Feature","geometry":{"type":"Point","coordinates":[20.5051366,44.7879917]},"properties":{"id":"node/12536408508","name":"Mozzart","kind":"bookmaker"}},{"type":"Feature","geometry":{"type":"Point","coordinates":[20.476276,44.8088096]},"properties":{"id":"node/12536408509","name":"Mozzart","kind":"bookmaker"}},{"type":"Feature","geometry":{"type":"Point","coordinates":[20.4886007,44.8462185]},"properties":{"id":"node/12536408510","name":"Mozzart","kind":"bookmaker"}},{"type":"Feature","geometry":{"type":"Point","coordinates":[20.4739291,44.8116487]},"properties":{"id":"node/12536408511","name":"Mozzart","kind":"bookmaker"}},{"type":"Feature","geometry":{"type":"Point","coordinates":[20.4945283,44.7938316]},"properties":{"id":"node/12536408512","name":"Mozzart","kind":"bookmaker"}},{"type":"Feature","geometry":{"type":"Point","coordinates":[20.5329162,44.7923565]},"properties":{"id":"node/12536408513","name":"Mozzart","kind":"bookmaker"}},{"type":"Feature","geometry":{"type":"Point","coordinates":[20.4827637,44.8170291]},"properties":{"id":"node/12536408514","name":"Mozzart","kind":"bookmaker"}},{"type":"Feature","geometry":{"type":"Point","coordinates":[20.5470246,44.7768849]},"properties":{"id":"node/12536408515","name":"Mozzart","kind":"bookmaker"}},{"type":"Feature","geometry":{"type":"Point","coordinates":[20.4778309,44.7950826]},"properties":{"id":"node/12536408516","name":"Mozzart","kind":"bookmaker","address":"Максима Горког 28"}},{"type":"Feature","geometry":{"type":"Point","coordinates":[20.5225548,44.8059114]},"properties":{"id":"node/12536408517","name":"Mozzart","kind":"bookmaker"}},{"type":"Feature","geometry":{"type":"Point","coordinates":[20.537438,44.8133041]},"properties":{"id":"node/12536408518","name":"Mozzart","kind":"bookmaker"}},{"type":"Feature","geometry":{"type":"Point","coordinates":[20.4743283,44.7782995]},"properties":{"id":"node/12536408519","name":"Mozzart","kind":"bookmaker"}},{"type":"Feature","geometry":{"type":"Point","coordinates":[20.4247161,44.7201756]},"properties":{"id":"node/12536408520","name":"Mozzart","kind":"bookmaker"}},{"type":"Feature","geometry":{"type":"Point","coordinates":[20.4546358,44.7521774]},"properties":{"id":"node/12536408521","name":"Mozzart","kind":"bookmaker"}},{"type":"Feature","geometry":{"type":"Point","coordinates":[20.5007672,44.7829964]},"properties":{"id":"node/12536408522","name":"Mozzart","kind":"bookmaker"}},{"type":"Feature","geometry":{"type":"Point","coordinates":[20.4269071,44.7446339]},"properties":{"id":"node/12536408523","name":"Mozzart","kind":"bookmaker"}},{"type":"Feature","geometry":{"type":"Point","coordinates":[20.4134988,44.7764584]},"properties":{"id":"node/12536408524","name":"Mozzart","kind":"bookmaker"}},{"type":"Feature","geometry":{"type":"Point","coordinates":[20.417388,44.7710756]},"properties":{"id":"node/12536408525","name":"Mozzart","kind":"bookmaker"}},{"type":"Feature","geometry":{"type":"Point","coordinates":[20.4073754,44.7769458]},"properties":{"id":"node/12536408526","name":"Mozzart","kind":"bookmaker"}},{"type":"Feature","geometry":{"type":"Point","coordinates":[20.3754036,44.7287856]},"properties":{"id":"node/12536408527","name":"Mozzart","kind":"bookmaker"}},{"type":"Feature","geometry":{"type":"Point","coordinates":[20.4100389,44.7810678]},"properties":{"id":"node/12536408528","name":"Mozzart","kind":"bookmaker"}},{"type":"Feature","geometry":{"type":"Point","coordinates":[20.4310112,44.7486553]},"properties":{"id":"node/12536408531","name":"Mozzart","kind":"bookmaker"}},{"type":"Feature","geometry":{"type":"Point","coordinates":[20.4594773,44.7148142]},"properties":{"id":"node/12536408532","name":"Mozzart","kind":"bookmaker"}},{"type":"Feature","geometry":{"type":"Point","coordinates":[20.4766114,44.7562154]},"properties":{"id":"node/12536408533","name":"Mozzart","kind":"bookmaker"}},{"type":"Feature","geometry":{"type":"Point","coordinates":[20.4355144,44.7449787]},"properties":{"id":"node/12536408534","name":"Mozzart","kind":"bookmaker"}},{"type":"Feature","geometry":{"type":"Point","coordinates":[20.4213527,44.7416296]},"properties":{"id":"node/12536408535","name":"Mozzart","kind":"bookmaker"}},{"type":"Feature","geometry":{"type":"Point","coordinates":[20.3833733,44.7305687]},"properties":{"id":"node/12536408536","name":"Mozzart","kind":"bookmaker"}},{"type":"Feature","geometry":{"type":"Point","coordinates":[20.4271218,44.7262416]},"properties":{"id":"node/12536408538","name":"Mozzart","kind":"bookmaker"}},{"type":"Feature","geometry":{"type":"Point","coordinates":[20.4938552,44.7641878]},"properties":{"id":"node/12536408539","name":"Mozzart","kind":"bookmaker"}},{"type":"Feature","geometry":{"type":"Point","coordinates":[20.4250324,44.7534741]},"properties":{"id":"node/12536408540","name":"Mozzart","kind":"bookmaker"}},{"type":"Feature","geometry":{"type":"Point","coordinates":[20.4426491,44.7962585]},"properties":{"id":"node/12536408541","name":"Mozzart","kind":"bookmaker"}},{"type":"Feature","geometry":{"type":"Point","coordinates":[20.5077784,44.7727322]},"properties":{"id":"node/12536408542","name":"Mozzart","kind":"bookmaker"}},{"type":"Feature","geometry":{"type":"Point","coordinates":[20.4572698,44.8089466]},"properties":{"id":"node/12536408543","name":"Mozzart","kind":"bookmaker"}},{"type":"Feature","geometry":{"type":"Point","coordinates":[20.4188419,44.7374019]},"properties":{"id":"node/12536408544","name":"Mozzart","kind":"bookmaker"}},{"type":"Feature","geometry":{"type":"Point","coordinates":[20.4047978,44.7558231]},"properties":{"id":"node/12536408545","name":"Mozzart","kind":"bookmaker"}},{"type":"Feature","geometry":{"type":"Point","coordinates":[20.50069,44.76744]},"properties":{"id":"node/12536408546","name":"Mozzart","kind":"bookmaker"}},{"type":"Feature","geometry":{"type":"Point","coordinates":[20.4080407,44.7503526]},"properties":{"id":"node/12536408547","name":"Mozzart","kind":"bookmaker"}},{"type":"Feature","geometry":{"type":"Point","coordinates":[20.4171092,44.7506954]},"properties":{"id":"node/12536408548","name":"Mozzart","kind":"bookmaker"}},{"type":"Feature","geometry":{"type":"Point","coordinates":[20.48394,44.762759]},"properties":{"id":"node/12536408549","name":"Mozzart","kind":"bookmaker"}},{"type":"Feature","geometry":{"type":"Point","coordinates":[20.3929103,44.8413785]},"properties":{"id":"node/12536408550","name":"Mozzart","kind":"bookmaker"}},{"type":"Feature","geometry":{"type":"Point","coordinates":[20.289785,44.8983697]},"properties":{"id":"node/12536408551","name":"Mozzart","kind":"bookmaker"}},{"type":"Feature","geometry":{"type":"Point","coordinates":[20.4103498,44.8337135]},"properties":{"id":"node/12536408552","name":"Mozzart","kind":"bookmaker"}},{"type":"Feature","geometry":{"type":"Point","coordinates":[20.413928,44.761381]},"properties":{"id":"node/12536408553","name":"Mozzart","kind":"bookmaker"}},{"type":"Feature","geometry":{"type":"Point","coordinates":[20.4595041,44.7768316]},"properties":{"id":"node/12536408554","name":"Mozzart","kind":"bookmaker"}},{"type":"Feature","geometry":{"type":"Point","coordinates":[20.4226479,44.7404312]},"properties":{"id":"node/12536408555","name":"Mozzart","kind":"bookmaker"}},{"type":"Feature","geometry":{"type":"Point","coordinates":[20.4893035,44.7695256]},"properties":{"id":"node/12536408556","name":"Mozzart","kind":"bookmaker"}},{"type":"Feature","geometry":{"type":"Point","coordinates":[20.4290503,44.7356757]},"properties":{"id":"node/12536408557","name":"Mozzart","kind":"bookmaker"}},{"type":"Feature","geometry":{"type":"Point","coordinates":[20.4820591,44.760975]},"properties":{"id":"node/12536408558","name":"Mozzart","kind":"bookmaker"}},{"type":"Feature","geometry":{"type":"Point","coordinates":[20.4176627,44.8287907]},"properties":{"id":"node/12536408559","name":"Mozzart","kind":"bookmaker"}},{"type":"Feature","geometry":{"type":"Point","coordinates":[20.4022175,44.8232986]},"properties":{"id":"node/12536408560","name":"Mozzart","kind":"bookmaker"}},{"type":"Feature","geometry":{"type":"Point","coordinates":[20.4608183,44.886851]},"properties":{"id":"node/12536408561","name":"Mozzart","kind":"bookmaker"}},{"type":"Feature","geometry":{"type":"Point","coordinates":[20.3870389,44.8197352]},"properties":{"id":"node/12536408563","name":"Mozzart","kind":"bookmaker"}},{"type":"Feature","geometry":{"type":"Point","coordinates":[20.364039,44.8078524]},"properties":{"id":"node/12536408564","name":"Mozzart","kind":"bookmaker"}},{"type":"Feature","geometry":{"type":"Point","coordinates":[20.3243616,44.8719129]},"properties":{"id":"node/12536408565","name":"Mozzart","kind":"bookmaker"}},{"type":"Feature","geometry":{"type":"Point","coordinates":[20.416031,44.8307024]},"properties":{"id":"node/12536408566","name":"Mozzart","kind":"bookmaker"}},{"type":"Feature","geometry":{"type":"Point","coordinates":[20.6460572,44.8696958]},"properties":{"id":"node/12536408568","name":"Mozzart","kind":"bookmaker"}},{"type":"Feature","geometry":{"type":"Point","coordinates":[20.3833802,44.815283]},"properties":{"id":"node/12536408569","name":"Mozzart","kind":"bookmaker"}},{"type":"Feature","geometry":{"type":"Point","coordinates":[20.391098,44.812592]},"properties":{"id":"node/12536408573","name":"Mozzart","kind":"bookmaker"}},{"type":"Feature","geometry":{"type":"Point","coordinates":[20.3998599,44.8138008]},"properties":{"id":"node/12536408574","name":"Mozzart","kind":"bookmaker"}},{"type":"Feature","geometry":{"type":"Point","coordinates":[20.360587,44.8074623]},"properties":{"id":"node/12536408575","name":"Mozzart","kind":"bookmaker"}},{"type":"Feature","geometry":{"type":"Point","coordinates":[20.3663895,44.7987708]},"properties":{"id":"node/12536408679","name":"Mozzart","kind":"bookmaker"}},{"type":"Feature","geometry":{"type":"Point","coordinates":[20.422337,44.8080047]},"properties":{"id":"node/12536408682","name":"Mozzart","kind":"bookmaker"}},{"type":"Feature","geometry":{"type":"Point","coordinates":[20.4230046,44.8127828]},"properties":{"id":"node/12536408683","name":"Mozzart","kind":"bookmaker"}},{"type":"Feature","geometry":{"type":"Point","coordinates":[20.454568,44.7460553]},"properties":{"id":"node/12607702301","name":"MaxBet","kind":"bookmaker"}},{"type":"Feature","geometry":{"type":"Point","coordinates":[20.3854608,44.8181818]},"properties":{"id":"node/12645091737","name":"Soccer","kind":"bookmaker"}},{"type":"Feature","geometry":{"type":"Point","coordinates":[20.3875488,44.8022933]},"properties":{"id":"node/12647307511","name":"Max Bet","kind":"bookmaker"}},{"type":"Feature","geometry":{"type":"Point","coordinates":[20.4175796,44.7846958]},"properties":{"id":"node/12714603237","name":"Mozzart","kind":"bookmaker"}},{"type":"Feature","geometry":{"type":"Point","coordinates":[20.3785642,44.8429392]},"properties":{"id":"node/12790503514","name":"SoccerBet","kind":"bookmaker"}},{"type":"Feature","geometry":{"type":"Point","coordinates":[20.39218,44.8411724]},"properties":{"id":"node/12801014285","name":"Soccer Bet","kind":"bookmaker"}},{"type":"Feature","geometry":{"type":"Point","coordinates":[20.3686779,44.8471794]},"properties":{"id":"node/12803424506","name":"MaxBet","kind":"bookmaker"}},{"type":"Feature","geometry":{"type":"Point","coordinates":[20.3885806,44.8414133]},"properties":{"id":"node/12810815193","name":"Merkur","kind":"slots","address":"Првомајска 57"}},{"type":"Feature","geometry":{"type":"Point","coordinates":[20.3934598,44.8412916]},"properties":{"id":"node/12818129308","name":"Taš Bet","kind":"bookmaker"}},{"type":"Feature","geometry":{"type":"Point","coordinates":[20.3824368,44.842585]},"properties":{"id":"node/12824369680","name":"AGT+","kind":"slots"}},{"type":"Feature","geometry":{"type":"Point","coordinates":[20.3823543,44.8425975]},"properties":{"id":"node/12824369681","name":"Mozzart Bet","kind":"bookmaker"}},{"type":"Feature","geometry":{"type":"Point","coordinates":[20.3917558,44.8412289]},"properties":{"id":"node/12869363346","name":"Grand Slot","kind":"slots"}},{"type":"Feature","geometry":{"type":"Point","coordinates":[20.4171693,44.8370562]},"properties":{"id":"node/12974809672","name":"Soccer Bet","kind":"bookmaker"}},{"type":"Feature","geometry":{"type":"Point","coordinates":[20.4740847,44.7974747]},"properties":{"id":"node/13003980231","name":"Winner Slot Club","kind":"slots","address":"Мачванска 3"}},{"type":"Feature","geometry":{"type":"Point","coordinates":[20.4697596,44.796684]},"properties":{"id":"node/13011691270","name":"Merkur","kind":"slots","address":"Стојана Протића 2"}},{"type":"Feature","geometry":{"type":"Point","coordinates":[20.4742906,44.7978989]},"properties":{"id":"node/13014940369","name":"TašBet","kind":"bookmaker","address":"Макензијева 85"}},{"type":"Feature","geometry":{"type":"Point","coordinates":[20.4766224,44.7981388]},"properties":{"id":"node/13015480138","name":"Soccerbet","kind":"bookmaker","address":"Максима Горког 6"}},{"type":"Feature","geometry":{"type":"Point","coordinates":[20.3835335,44.807088]},"properties":{"id":"node/13019381987","name":"AdmiralBet","kind":"bookmaker","address":"Јапанска 3a"}},{"type":"Feature","geometry":{"type":"Point","coordinates":[20.4740901,44.8009006]},"properties":{"id":"node/13072242379","name":"Balkan Bet","kind":"bookmaker","address":"Курсулина 25"}},{"type":"Feature","geometry":{"type":"Point","coordinates":[20.4674925,44.7990151]},"properties":{"id":"node/13129003427","name":"Max Bet","kind":"bookmaker","address":"Крушедолска 7"}},{"type":"Feature","geometry":{"type":"Point","coordinates":[20.475899,44.8013365]},"properties":{"id":"node/13167284089","name":"bet 365","kind":"bookmaker","address":"Милешевска 2"}},{"type":"Feature","geometry":{"type":"Point","coordinates":[20.4091371,44.8461605]},"properties":{"id":"node/13309846484","name":"Admiral club","kind":"slots"}},{"type":"Feature","geometry":{"type":"Point","coordinates":[20.3841023,44.8566673]},"properties":{"id":"node/13346953199","name":"Soccerbet","kind":"bookmaker"}},{"type":"Feature","geometry":{"type":"Point","coordinates":[20.4996269,44.7498528]},"properties":{"id":"node/13399465010","name":"Kladionica","kind":"bookmaker"}},{"type":"Feature","geometry":{"type":"Point","coordinates":[20.4272988,44.7508993]},"properties":{"id":"node/13508773601","name":"AdmiralBet","kind":"bookmaker"}},{"type":"Feature","geometry":{"type":"Point","coordinates":[20.4604858,44.887345]},"properties":{"id":"node/13508773602","name":"AdmiralBet","kind":"bookmaker"}},{"type":"Feature","geometry":{"type":"Point","coordinates":[20.4766301,44.7831525]},"properties":{"id":"node/13508773622","name":"AdmiralBet","kind":"bookmaker"}},{"type":"Feature","geometry":{"type":"Point","coordinates":[20.5224315,44.8181903]},"properties":{"id":"node/13508773627","name":"AdmiralBet","kind":"bookmaker"}},{"type":"Feature","geometry":{"type":"Point","coordinates":[20.2554363,44.8999866]},"properties":{"id":"node/13508773628","name":"AdmiralBet","kind":"bookmaker"}},{"type":"Feature","geometry":{"type":"Point","coordinates":[20.4177448,44.7735376]},"properties":{"id":"node/13508773629","name":"AdmiralBet","kind":"bookmaker"}},{"type":"Feature","geometry":{"type":"Point","coordinates":[20.4193408,44.7667834]},"properties":{"id":"node/13508773631","name":"AdmiralBet","kind":"bookmaker"}},{"type":"Feature","geometry":{"type":"Point","coordinates":[20.3752935,44.8001944]},"properties":{"id":"node/13508773632","name":"AdmiralBet","kind":"bookmaker"}},{"type":"Feature","geometry":{"type":"Point","coordinates":[20.4043633,44.7559069]},"properties":{"id":"node/13508773634","name":"AdmiralBet","kind":"bookmaker"}},{"type":"Feature","geometry":{"type":"Point","coordinates":[20.3522211,44.8061835]},"properties":{"id":"node/13508773635","name":"AdmiralBet","kind":"bookmaker"}},{"type":"Feature","geometry":{"type":"Point","coordinates":[20.2763388,44.7923907]},"properties":{"id":"node/13508773636","name":"AdmiralBet","kind":"bookmaker"}},{"type":"Feature","geometry":{"type":"Point","coordinates":[20.2681956,44.7907613]},"properties":{"id":"node/13508773637","name":"AdmiralBet","kind":"bookmaker"}},{"type":"Feature","geometry":{"type":"Point","coordinates":[20.3168401,44.7979029]},"properties":{"id":"node/13508773638","name":"AdmiralBet","kind":"bookmaker"}},{"type":"Feature","geometry":{"type":"Point","coordinates":[20.532538,44.7884143]},"properties":{"id":"node/13508773639","name":"AdmiralBet","kind":"bookmaker"}},{"type":"Feature","geometry":{"type":"Point","coordinates":[20.5421698,44.7903806]},"properties":{"id":"node/13508773640","name":"AdmiralBet","kind":"bookmaker"}},{"type":"Feature","geometry":{"type":"Point","coordinates":[20.4941583,44.7643858]},"properties":{"id":"node/13508773641","name":"AdmiralBet","kind":"bookmaker"}},{"type":"Feature","geometry":{"type":"Point","coordinates":[20.4817075,44.7648219]},"properties":{"id":"node/13508773642","name":"AdmiralBet","kind":"bookmaker"}},{"type":"Feature","geometry":{"type":"Point","coordinates":[20.5080736,44.7883419]},"properties":{"id":"node/13508773643","name":"AdmiralBet","kind":"bookmaker"}},{"type":"Feature","geometry":{"type":"Point","coordinates":[20.5105251,44.7799521]},"properties":{"id":"node/13508773644","name":"AdmiralBet","kind":"bookmaker"}},{"type":"Feature","geometry":{"type":"Point","coordinates":[20.4859137,44.8493969]},"properties":{"id":"node/13508773645","name":"AdmiralBet","kind":"bookmaker"}},{"type":"Feature","geometry":{"type":"Point","coordinates":[20.5497604,44.7630832]},"properties":{"id":"node/13508773646","name":"AdmiralBet","kind":"bookmaker"}},{"type":"Feature","geometry":{"type":"Point","coordinates":[20.4135257,44.7621615]},"properties":{"id":"node/13508773647","name":"AdmiralBet","kind":"bookmaker"}},{"type":"Feature","geometry":{"type":"Point","coordinates":[20.3686819,44.723425]},"properties":{"id":"node/13508773649","name":"AdmiralBet","kind":"bookmaker"}},{"type":"Feature","geometry":{"type":"Point","coordinates":[20.4793203,44.7868952]},"properties":{"id":"node/13508773651","name":"AdmiralBet","kind":"bookmaker"}},{"type":"Feature","geometry":{"type":"Point","coordinates":[20.424325,44.755255]},"properties":{"id":"node/13508773652","name":"AdmiralBet","kind":"bookmaker"}},{"type":"Feature","geometry":{"type":"Point","coordinates":[20.4181766,44.7409113]},"properties":{"id":"node/13508773653","name":"AdmiralBet","kind":"bookmaker"}},{"type":"Feature","geometry":{"type":"Point","coordinates":[20.352728,44.7992333]},"properties":{"id":"node/13508773654","name":"AdmiralBet","kind":"bookmaker"}},{"type":"Feature","geometry":{"type":"Point","coordinates":[20.4797119,44.8067088]},"properties":{"id":"node/13508773660","name":"AdmiralBet","kind":"bookmaker"}},{"type":"Feature","geometry":{"type":"Point","coordinates":[20.3755966,44.8138426]},"properties":{"id":"node/13508773667","name":"AdmiralBet","kind":"bookmaker"}},{"type":"Feature","geometry":{"type":"Point","coordinates":[20.5008074,44.7855626]},"properties":{"id":"node/13508773671","name":"AdmiralBet","kind":"bookmaker"}},{"type":"Feature","geometry":{"type":"Point","coordinates":[20.5027736,44.7869637]},"properties":{"id":"node/13508773675","name":"AdmiralBet","kind":"bookmaker"}},{"type":"Feature","geometry":{"type":"Point","coordinates":[20.3601122,44.8552699]},"properties":{"id":"node/13508773682","name":"AdmiralBet","kind":"bookmaker"}},{"type":"Feature","geometry":{"type":"Point","coordinates":[20.6454,44.881982]},"properties":{"id":"node/13508773694","name":"AdmiralBet","kind":"bookmaker"}},{"type":"Feature","geometry":{"type":"Point","coordinates":[20.6458345,44.8700057]},"properties":{"id":"node/13508773702","name":"AdmiralBet","kind":"bookmaker"}},{"type":"Feature","geometry":{"type":"Point","coordinates":[20.3883322,44.8009669]},"properties":{"id":"node/13647348728","name":"Soccer","kind":"bookmaker"}},{"type":"Feature","geometry":{"type":"Point","coordinates":[20.5557537,44.7716579]},"properties":{"id":"node/13647448739","name":"Slot klub","kind":"slots"}},{"type":"Feature","geometry":{"type":"Point","coordinates":[20.6471777,44.8706444]},"properties":{"id":"node/13696469173","name":"Balkan Bet","kind":"bookmaker"}},{"type":"Feature","geometry":{"type":"Point","coordinates":[20.6462188,44.8704802]},"properties":{"id":"node/13696469174","name":"MaxBet","kind":"bookmaker"}},{"type":"Feature","geometry":{"type":"Point","coordinates":[20.3879446,44.8022928]},"properties":{"id":"node/13742336715","name":"Balkan Slot","kind":"slots"}},{"type":"Feature","geometry":{"type":"Point","coordinates":[20.4139809,44.8099445]},"properties":{"id":"way/94658338","name":"Grand Casino Admiral","kind":"casino","address":"Шпанских бораца 74a"}},{"type":"Feature","geometry":{"type":"Point","coordinates":[20.46023,44.757384]},"properties":{"id":"way/413008827","name":"Mozzart","kind":"bookmaker","address":"Борска 45d"}},{"type":"Feature","geometry":{"type":"Point","coordinates":[20.522922,44.8116189]},"properties":{"id":"way/424135926","name":"Admiral","kind":"casino","address":"Миријевски булевар 31"}},{"type":"Feature","geometry":{"type":"Point","coordinates":[20.335519,44.8010492]},"properties":{"id":"way/472359063","name":"Balkan Bet","kind":"bookmaker","address":"Сурчинска 227"}},{"type":"Feature","geometry":{"type":"Point","coordinates":[20.3237976,44.7993691]},"properties":{"id":"way/474054927","name":"Трон","kind":"casino","address":"Словенска 2a"}},{"type":"Feature","geometry":{"type":"Point","coordinates":[20.3852374,44.8082123]},"properties":{"id":"way/475476803","name":"Меркур аутомат клуб","kind":"casino","address":"Гандијева 17b"}},{"type":"Feature","geometry":{"type":"Point","coordinates":[20.4106533,44.8218988]},"properties":{"id":"way/741250535","name":"Балкан Бет","kind":"bookmaker","address":"Омладинских бригада 18a"}},{"type":"Feature","geometry":{"type":"Point","coordinates":[20.5219844,44.8068319]},"properties":{"id":"way/957204282","name":"Max Bet","kind":"bookmaker","address":"Пера Ћетковића 37b"}},{"type":"Feature","geometry":{"type":"Point","coordinates":[20.457436,44.8884984]},"properties":{"id":"way/1197439614","name":"Адмирал","kind":"bookmaker"}},{"type":"Feature","geometry":{"type":"Point","coordinates":[20.4149575,44.7579289]},"properties":{"id":"way/1281821342","name":"Kazino","kind":"casino","address":"Трговачка 38"}},{"type":"Feature","geometry":{"type":"Point","coordinates":[20.4614302,44.7878471]},"properties":{"id":"way/1372706140","name":"Soccer","kind":"bookmaker"}}]}