{"type":"FeatureCollection","features":[{"type":"Feature","geometry":{"type":"Point","coordinates":[20.4597746,44.8155143]},"properties":{"id":"node/503224334","name":"Рачунарски факултет","kind":"school"}},{"type":"Feature","geometry":{"type":"Point","coordinates":[20.496563,44.8011018]},"properties":{"id":"node/1304631329","name":"Вртић Меда","kind":"kindergarten","address":"Димитрија Катића 14"}},{"type":"Feature","geometry":{"type":"Point","coordinates":[20.4399308,44.7459646]},"properties":{"id":"node/1867304604","name":"Општа гимназија","kind":"school"}},{"type":"Feature","geometry":{"type":"Point","coordinates":[20.6448148,44.8825061]},"properties":{"id":"node/2063230971","name":"Vrtić","kind":"kindergarten"}},{"type":"Feature","geometry":{"type":"Point","coordinates":[20.417377,44.8189769]},"properties":{"id":"node/2112218431","name":"Чарли Браун","kind":"kindergarten"}},{"type":"Feature","geometry":{"type":"Point","coordinates":[20.4167495,44.8356328]},"properties":{"id":"node/2304005364","name":"Gorson","kind":"school"}},{"type":"Feature","geometry":{"type":"Point","coordinates":[20.4268051,44.7692155]},"properties":{"id":"node/2449409213","name":"Жирић","kind":"kindergarten"}},{"type":"Feature","geometry":{"type":"Point","coordinates":[20.4182616,44.7852201]},"properties":{"id":"node/2456796749","name":"Вртић ђурђевак","kind":"kindergarten"}},{"type":"Feature","geometry":{"type":"Point","coordinates":[20.4814552,44.7786057]},"properties":{"id":"node/2690309301","name":"Школа страних језика „Галиндо”","kind":"school","address":"Витановачка 42"}},{"type":"Feature","geometry":{"type":"Point","coordinates":[20.4690382,44.8182883]},"properties":{"id":"node/3300306106","name":"Балетска школа Лујо Давичо","kind":"school","address":"Кнез Милетина 8"}},{"type":"Feature","geometry":{"type":"Point","coordinates":[20.4787097,44.7784545]},"properties":{"id":"node/3921172303","name":"Играоница „Авантура”","kind":"kindergarten","address":"Витановачка 27V"}},{"type":"Feature","geometry":{"type":"Point","coordinates":[20.4046524,44.8503115]},"properties":{"id":"node/3939652692","name":"Електротехничка школа „Земун”","kind":"school","address":"Наде Димић 4"}},{"type":"Feature","geometry":{"type":"Point","coordinates":[20.4044056,44.8499749]},"properties":{"id":"node/3939652693","name":"Медицинска школа „Надежда Петровић”","kind":"school","address":"Наде Димић 4"}},{"type":"Feature","geometry":{"type":"Point","coordinates":[20.4808342,44.7562104]},"properties":{"id":"node/4042284095","name":"Vrtić Puž","kind":"kindergarten","address":"Булевар ослобођења 142"}},{"type":"Feature","geometry":{"type":"Point","coordinates":[20.4194069,44.8023846]},"properties":{"id":"node/4239277097","name":"Средња школа за информационе технологије","kind":"school"}},{"type":"Feature","geometry":{"type":"Point","coordinates":[20.4463322,44.7938994]},"properties":{"id":"node/4648623496","name":"Школа математике Галилео","kind":"school","address":"Козјачка 5"}},{"type":"Feature","geometry":{"type":"Point","coordinates":[20.4932845,44.7567555]},"properties":{"id":"node/5012777615","name":"Вртић Лептирић","kind":"kindergarten"}},{"type":"Feature","geometry":{"type":"Point","coordinates":[20.3749497,44.8076121]},"properties":{"id":"node/5058440824","name":"Sport Success Academy","kind":"school","address":"Војвођанска 68"}},{"type":"Feature","geometry":{"type":"Point","coordinates":[20.4594683,44.8117494]},"properties":{"id":"node/5077384449","name":"The workshop","kind":"school"}},{"type":"Feature","geometry":{"type":"Point","coordinates":[20.468917,44.8182689]},"properties":{"id":"node/5132850194","name":"Вртић Дамбо","kind":"kindergarten"}},{"type":"Feature","geometry":{"type":"Point","coordinates":[20.5089681,44.8177395]},"properties":{"id":"node/5239884638","name":"Happy kids 7","kind":"kindergarten"}},{"type":"Feature","geometry":{"type":"Point","coordinates":[20.464503,44.8028775]},"properties":{"id":"node/5249178823","name":"Креирање успеха","kind":"school"}},{"type":"Feature","geometry":{"type":"Point","coordinates":[20.4615899,44.8160284]},"properties":{"id":"node/5487265735","name":"Timbao Salsa School","kind":"school","address":"Македонска"}},{"type":"Feature","geometry":{"type":"Point","coordinates":[20.4153678,44.8221595]},"properties":{"id":"node/5903578940","name":"Вртић „Универзум”","kind":"kindergarten","address":"Булевар Михајла Пупина 165а"}},{"type":"Feature","geometry":{"type":"Point","coordinates":[20.4658055,44.8091964]},"properties":{"id":"node/6024718391","name":"Дом ученика „Јелица Миловановић”, зграда 5А","kind":"school"}},{"type":"Feature","geometry":{"type":"Point","coordinates":[20.4652206,44.8086504]},"properties":{"id":"node/6024718393","name":"Dom učenika „Jelica Milovanović”, zgrada 8/1","kind":"school"}},{"type":"Feature","geometry":{"type":"Point","coordinates":[20.4543808,44.778643]},"properties":{"id":"node/6143778902","name":"Chartwell International School","kind":"kindergarten","address":"Теодора Драјзера 38"}},{"type":"Feature","geometry":{"type":"Point","coordinates":[20.4951542,44.8037164]},"properties":{"id":"node/6302187122","name":"Грађевинска школа","kind":"school","address":"Светог Николе 39"}},{"type":"Feature","geometry":{"type":"Point","coordinates":[20.4945614,44.8040133]},"properties":{"id":"node/6302187123","name":"Техноарт Београд - школа за машинство и уметничке занате","kind":"school","address":"Светог Николе 39"}},{"type":"Feature","geometry":{"type":"Point","coordinates":[20.4614176,44.8129948]},"properties":{"id":"node/6382023804","name":"Гимназија плус","kind":"school","address":"Теразије 27"}},{"type":"Feature","geometry":{"type":"Point","coordinates":[20.503877,44.7954214]},"properties":{"id":"node/6497699219","name":"Vrtić Pegaz","kind":"kindergarten","address":"Хекторовићева 22"}},{"type":"Feature","geometry":{"type":"Point","coordinates":[20.4948897,44.7981189]},"properties":{"id":"node/6498468762","name":"Dečiji vrtić Slavuj","kind":"kindergarten"}},{"type":"Feature","geometry":{"type":"Point","coordinates":[20.4998274,44.7943197]},"properties":{"id":"node/6576383844","name":"Vrtić „Nojeva barka”","kind":"kindergarten","address":"Слободанке Данке Савић 31"}},{"type":"Feature","geometry":{"type":"Point","coordinates":[20.4691163,44.8159662]},"properties":{"id":"node/6770397991","name":"Вртић Јуца Дечја откривалица","kind":"kindergarten","address":"Јелене Ћетковић 12"}},{"type":"Feature","geometry":{"type":"Point","coordinates":[20.4953211,44.7868636]},"properties":{"id":"node/6774932091","name":"Škola","kind":"school"}},{"type":"Feature","geometry":{"type":"Point","coordinates":[20.490054,44.7980067]},"properties":{"id":"node/6774932105","name":"Baby Palace Anđela - Sanjalica","kind":"kindergarten"}},{"type":"Feature","geometry":{"type":"Point","coordinates":[20.4717043,44.7812599]},"properties":{"id":"node/6779720587","name":"Škola","kind":"school"}},{"type":"Feature","geometry":{"type":"Point","coordinates":[20.4676593,44.7545464]},"properties":{"id":"node/6790627197","name":"Vrtić","kind":"kindergarten"}},{"type":"Feature","geometry":{"type":"Point","coordinates":[20.3772402,44.7974899]},"properties":{"id":"node/6799957791","name":"Вртић Ђурђевак","kind":"kindergarten","address":"Јурија Гагарина 221"}},{"type":"Feature","geometry":{"type":"Point","coordinates":[20.5041195,44.7993779]},"properties":{"id":"node/6813088220","name":"Vrtić Zvezdara","kind":"kindergarten","address":"Чингријина 1a"}},{"type":"Feature","geometry":{"type":"Point","coordinates":[20.5036535,44.7977708]},"properties":{"id":"node/6813088221","name":"Vrtić Maštarije","kind":"kindergarten"}},{"type":"Feature","geometry":{"type":"Point","coordinates":[20.4501703,44.8072231]},"properties":{"id":"node/6855957081","name":"Вртић Футурино","kind":"kindergarten","address":"Херцеговачка 19"}},{"type":"Feature","geometry":{"type":"Point","coordinates":[20.4116125,44.7633174]},"properties":{"id":"node/6985984389","name":"Vrtić Magija","kind":"kindergarten"}},{"type":"Feature","geometry":{"type":"Point","coordinates":[20.4908,44.8036911]},"properties":{"id":"node/7007054166","name":"Beogradska politehnika","kind":"school","address":"Катарине Амброзић 3"}},{"type":"Feature","geometry":{"type":"Point","coordinates":[20.4903129,44.7972808]},"properties":{"id":"node/7017179206","name":"Naša bajka","kind":"kindergarten","address":"Поп Стојанова 7"}},{"type":"Feature","geometry":{"type":"Point","coordinates":[20.6414631,44.8679911]},"properties":{"id":"node/7178127372","name":"Вртић „Шврћа”","kind":"kindergarten"}},{"type":"Feature","geometry":{"type":"Point","coordinates":[20.6457847,44.8687771]},"properties":{"id":"node/7178127373","name":"Вртић „Кекец”","kind":"kindergarten"}},{"type":"Feature","geometry":{"type":"Point","coordinates":[20.6493593,44.8643672]},"properties":{"id":"node/7251741675","name":"ОШ „Бранко Радичевић”","kind":"school"}},{"type":"Feature","geometry":{"type":"Point","coordinates":[20.4134902,44.8341774]},"properties":{"id":"node/7368999629","name":"Mega Kids 3","kind":"kindergarten","address":"Џона Кенедија"}},{"type":"Feature","geometry":{"type":"Point","coordinates":[20.492339,44.8040819]},"properties":{"id":"node/7599902757","name":"Вртић „Кућа малих стопала”","kind":"kindergarten","address":"Крфска 21"}},{"type":"Feature","geometry":{"type":"Point","coordinates":[20.6490835,44.8701375]},"properties":{"id":"node/7670924027","name":"Вртић „Љиљан”","kind":"kindergarten"}},{"type":"Feature","geometry":{"type":"Point","coordinates":[20.4000357,44.8062733]},"properties":{"id":"node/7728588858","name":"Малац генијалац","kind":"school"}},{"type":"Feature","geometry":{"type":"Point","coordinates":[20.3997026,44.8068024]},"properties":{"id":"node/7732137142","name":"Меда","kind":"kindergarten"}},{"type":"Feature","geometry":{"type":"Point","coordinates":[20.4912846,44.7966153]},"properties":{"id":"node/7855575741","name":"Baby Palace Anđela","kind":"kindergarten","address":"Брегалничка 9"}},{"type":"Feature","geometry":{"type":"Point","coordinates":[20.491408,44.7967989]},"properties":{"id":"node/7855575746","name":"Baby Palace Anđela - Bela kula","kind":"kindergarten","address":"Брегалничка 7"}},{"type":"Feature","geometry":{"type":"Point","coordinates":[20.4922131,44.7970871]},"properties":{"id":"node/7855575747","name":"Baby Palace Anđela - Vila Lux","kind":"kindergarten","address":"Силвија Крањчевића 9"}},{"type":"Feature","geometry":{"type":"Point","coordinates":[20.3947056,44.8470931]},"properties":{"id":"node/7862040691","name":"Трешњица","kind":"kindergarten"}},{"type":"Feature","geometry":{"type":"Point","coordinates":[20.4977578,44.7883686]},"properties":{"id":"node/7887457153","name":"Техничка школа за дизајн коже","kind":"school","address":"Војислава Илића 88"}},{"type":"Feature","geometry":{"type":"Point","coordinates":[20.4973581,44.788281]},"properties":{"id":"node/7887457154","name":"Школа за дизајн текстила","kind":"school","address":"Војислава Илића 88"}},{"type":"Feature","geometry":{"type":"Point","coordinates":[20.4803133,44.8020815]},"properties":{"id":"node/8092363364","name":"Архимед приватна средња школа и гимназија","kind":"school","address":"Љубостињска 2"}},{"type":"Feature","geometry":{"type":"Point","coordinates":[20.4732236,44.8046081]},"properties":{"id":"node/8191808675","name":"Вртић Чаролије","kind":"kindergarten","address":"Кумановска 11"}},{"type":"Feature","geometry":{"type":"Point","coordinates":[20.6380699,44.8783231]},"properties":{"id":"node/8302801747","name":"Вртић „Бубамара”","kind":"kindergarten"}},{"type":"Feature","geometry":{"type":"Point","coordinates":[20.6327449,44.8775782]},"properties":{"id":"node/8302801748","name":"Вртић „Црвенкапа”","kind":"kindergarten"}},{"type":"Feature","geometry":{"type":"Point","coordinates":[20.6473825,44.8823656]},"properties":{"id":"node/8302801749","name":"Вртић „Бајка”","kind":"kindergarten"}},{"type":"Feature","geometry":{"type":"Point","coordinates":[20.6444186,44.8623859]},"properties":{"id":"node/8302801750","name":"Пупољак","kind":"kindergarten"}},{"type":"Feature","geometry":{"type":"Point","coordinates":[20.643654,44.8742247]},"properties":{"id":"node/8302801753","name":"Вртић „Лептирић”","kind":"kindergarten"}},{"type":"Feature","geometry":{"type":"Point","coordinates":[20.6453097,44.8732233]},"properties":{"id":"node/8302942802","name":"Вртић „Ласта”","kind":"kindergarten"}},{"type":"Feature","geometry":{"type":"Point","coordinates":[20.6462807,44.8633988]},"properties":{"id":"node/8302942804","name":"Вртић „Лане”","kind":"kindergarten"}},{"type":"Feature","geometry":{"type":"Point","coordinates":[20.6398525,44.866294]},"properties":{"id":"node/8302942805","name":"Вртић „Цврчак”","kind":"kindergarten"}},{"type":"Feature","geometry":{"type":"Point","coordinates":[20.4855028,44.8166136]},"properties":{"id":"node/8315225517","name":"Srednja škola UTE","kind":"school","address":"Митрополита Петра 8"}},{"type":"Feature","geometry":{"type":"Point","coordinates":[20.4857125,44.8165774]},"properties":{"id":"node/8315248717","name":"VEN Centar","kind":"school","address":"Митрополита Петра 8"}},{"type":"Feature","geometry":{"type":"Point","coordinates":[20.4586756,44.7812949]},"properties":{"id":"node/8381763676","name":"ОШ „Мина Караџић”","kind":"school"}},{"type":"Feature","geometry":{"type":"Point","coordinates":[20.4834178,44.8047911]},"properties":{"id":"node/8425127474","name":"Happy Kids 6","kind":"kindergarten","address":"Војводе Бране 18g"}},{"type":"Feature","geometry":{"type":"Point","coordinates":[20.477057,44.8125396]},"properties":{"id":"node/9091313465","name":"Пионир","kind":"kindergarten"}},{"type":"Feature","geometry":{"type":"Point","coordinates":[20.4020497,44.8298305]},"properties":{"id":"node/9125015521","name":"Чаролија","kind":"kindergarten","address":"Булевар маршала Толбухина 44"}},{"type":"Feature","geometry":{"type":"Point","coordinates":[20.4655016,44.819314]},"properties":{"id":"node/9171203396","name":"Вртић Лола","kind":"kindergarten","address":"Француска 32"}},{"type":"Feature","geometry":{"type":"Point","coordinates":[20.4776315,44.7888509]},"properties":{"id":"node/9235486367","name":"Вртић Бубица","kind":"kindergarten","address":"Цанкарева 3"}},{"type":"Feature","geometry":{"type":"Point","coordinates":[20.3665466,44.8118306]},"properties":{"id":"node/9964745333","name":"Вртић „Лоптица”","kind":"kindergarten","address":"Милана Вујаклије 10"}},{"type":"Feature","geometry":{"type":"Point","coordinates":[20.4117557,44.8189617]},"properties":{"id":"node/10221791263","name":"Pčelica","kind":"kindergarten"}},{"type":"Feature","geometry":{"type":"Point","coordinates":[20.477347,44.7680362]},"properties":{"id":"node/10675762734","name":"Medin Kutak","kind":"kindergarten"}},{"type":"Feature","geometry":{"type":"Point","coordinates":[20.4613564,44.8797901]},"properties":{"id":"node/11083050615","name":"Дунавска бајка","kind":"kindergarten"}},{"type":"Feature","geometry":{"type":"Point","coordinates":[20.4644643,44.8190757]},"properties":{"id":"node/11215326638","name":"London Gates Belgrade","kind":"school"}},{"type":"Feature","geometry":{"type":"Point","coordinates":[20.4542022,44.8041208]},"properties":{"id":"node/11445995864","name":"Школа за бродарство, бродоградњу и хидроградњу","kind":"school","address":"Милоша Поцерца 2"}},{"type":"Feature","geometry":{"type":"Point","coordinates":[20.4693837,44.7999843]},"properties":{"id":"node/11739155620","name":"Mala Akademija","kind":"kindergarten","address":"Николаја Краснова 9"}},{"type":"Feature","geometry":{"type":"Point","coordinates":[20.3946516,44.8012098]},"properties":{"id":"node/11936342855","name":"Средња школа Коста Чукић","kind":"school"}},{"type":"Feature","geometry":{"type":"Point","coordinates":[20.3942782,44.7997886]},"properties":{"id":"node/11944231108","name":"Смарткос","kind":"kindergarten"}},{"type":"Feature","geometry":{"type":"Point","coordinates":[20.4526421,44.8814804]},"properties":{"id":"node/11984177787","name":"Korak Ispred","kind":"kindergarten"}},{"type":"Feature","geometry":{"type":"Point","coordinates":[20.4561832,44.8762221]},"properties":{"id":"node/12096132697","name":"Петар Пан","kind":"kindergarten"}},{"type":"Feature","geometry":{"type":"Point","coordinates":[20.4676614,44.811844]},"properties":{"id":"node/12110758813","name":"Архимед","kind":"school"}},{"type":"Feature","geometry":{"type":"Point","coordinates":[20.4952256,44.8036358]},"properties":{"id":"node/12291697569","name":"Matematički fakultet","kind":"school","address":"Светог Николе 39"}},{"type":"Feature","geometry":{"type":"Point","coordinates":[20.4721079,44.8203843]},"properties":{"id":"node/12485112931","name":"Вртић Скаска","kind":"kindergarten"}},{"type":"Feature","geometry":{"type":"Point","coordinates":[20.4232512,44.8137499]},"properties":{"id":"node/12540931830","name":"Ана","kind":"kindergarten"}},{"type":"Feature","geometry":{"type":"Point","coordinates":[20.3958029,44.8532577]},"properties":{"id":"node/12578175931","name":"abc junior","kind":"kindergarten"}},{"type":"Feature","geometry":{"type":"Point","coordinates":[20.4043229,44.8377085]},"properties":{"id":"node/12578200791","name":"Мали истраживачи","kind":"kindergarten"}},{"type":"Feature","geometry":{"type":"Point","coordinates":[20.4050205,44.8378184]},"properties":{"id":"node/12578220887","name":"abc junior","kind":"kindergarten"}},{"type":"Feature","geometry":{"type":"Point","coordinates":[20.4055007,44.8371371]},"properties":{"id":"node/12578226275","name":"Први корак","kind":"kindergarten"}},{"type":"Feature","geometry":{"type":"Point","coordinates":[20.3671645,44.8628183]},"properties":{"id":"node/12622327236","name":"Trešnjober","kind":"kindergarten","address":"Батајнички друм 1a"}},{"type":"Feature","geometry":{"type":"Point","coordinates":[20.4322981,44.7885481]},"properties":{"id":"node/12714285909","name":"Руска школа „Валентина Терешкова”","kind":"school"}},{"type":"Feature","geometry":{"type":"Point","coordinates":[20.4622201,44.8147044]},"properties":{"id":"node/12747812275","name":"Средња школа „Свети Сава”","kind":"school"}},{"type":"Feature","geometry":{"type":"Point","coordinates":[20.3657487,44.8473025]},"properties":{"id":"node/12803424513","name":"Detlić","kind":"kindergarten","address":"Добановачки пут 34"}},{"type":"Feature","geometry":{"type":"Point","coordinates":[20.4026212,44.8473639]},"properties":{"id":"node/12807847078","name":"Pčelica Maja","kind":"kindergarten","address":"Новоградска 17"}},{"type":"Feature","geometry":{"type":"Point","coordinates":[20.4634671,44.803443]},"properties":{"id":"node/12847578555","name":"Гимназија „Стефан Немања”","kind":"school"}},{"type":"Feature","geometry":{"type":"Point","coordinates":[20.4591911,44.8143558]},"properties":{"id":"node/12849481361","name":"Приватна гимназија „Антони МП Барили”","kind":"school"}},{"type":"Feature","geometry":{"type":"Point","coordinates":[20.4597485,44.8154773]},"properties":{"id":"node/12849716765","name":"Рачунарска гимназија","kind":"school"}},{"type":"Feature","geometry":{"type":"Point","coordinates":[20.4638666,44.8072701]},"properties":{"id":"node/12856336316","name":"Савремена гимназија","kind":"school"}},{"type":"Feature","geometry":{"type":"Point","coordinates":[20.4017724,44.813864]},"properties":{"id":"node/12868271364","name":"ОШ „Савремена”","kind":"school"}},{"type":"Feature","geometry":{"type":"Point","coordinates":[20.4185788,44.7645555]},"properties":{"id":"node/12869365546","name":"Гимназија „Црњански”","kind":"school"}},{"type":"Feature","geometry":{"type":"Point","coordinates":[20.4185082,44.7644605]},"properties":{"id":"node/12869365547","name":"ОШ „Плави круг”","kind":"school"}},{"type":"Feature","geometry":{"type":"Point","coordinates":[20.4853199,44.8165979]},"properties":{"id":"node/12870952132","name":"Школа за основно образовање одраслих „Браћа Стаменковић”","kind":"school"}},{"type":"Feature","geometry":{"type":"Point","coordinates":[20.4738164,44.7741675]},"properties":{"id":"node/12870988045","name":"Школа за основно и средње образовање „Вожд”","kind":"school"}},{"type":"Feature","geometry":{"type":"Point","coordinates":[20.3966638,44.8503284]},"properties":{"id":"node/12871323923","name":"ОШ за одрасле Бранко Пешић","kind":"school"}},{"type":"Feature","geometry":{"type":"Point","coordinates":[20.4700133,44.8126588]},"properties":{"id":"node/12872109420","name":"Правно-пословна школа","kind":"school"}},{"type":"Feature","geometry":{"type":"Point","coordinates":[20.4575023,44.8221529]},"properties":{"id":"node/12873197042","name":"Београдска исламска средња медреса","kind":"school"}},{"type":"Feature","geometry":{"type":"Point","coordinates":[20.4747814,44.7952247]},"properties":{"id":"node/13019084486","name":"Kiparh","kind":"school","address":"Шуматовачка 72"}},{"type":"Feature","geometry":{"type":"Point","coordinates":[20.4741139,44.7955211]},"properties":{"id":"node/13019084488","name":"Srećkolino","kind":"kindergarten","address":"Шуматовачка 39a"}},{"type":"Feature","geometry":{"type":"Point","coordinates":[20.4773091,44.8002074]},"properties":{"id":"node/13041771246","name":"Mala Fabrika Mašte","kind":"kindergarten","address":"Тополска 9"}},{"type":"Feature","geometry":{"type":"Point","coordinates":[20.4765825,44.8003569]},"properties":{"id":"node/13041771248","name":"Vrtić Kućica","kind":"kindergarten","address":"Тополска 4"}},{"type":"Feature","geometry":{"type":"Point","coordinates":[20.4727408,44.8010877]},"properties":{"id":"node/13065590976","name":"Baba Višnjina Čuvaonica","kind":"kindergarten","address":"Баба-Вишњина 19"}},{"type":"Feature","geometry":{"type":"Point","coordinates":[20.4777983,44.7986877]},"properties":{"id":"node/13118958605","name":"Kod Bake","kind":"kindergarten","address":"Новопазарска 50"}},{"type":"Feature","geometry":{"type":"Point","coordinates":[20.5388564,44.8130211]},"properties":{"id":"node/13158476473","name":"Vrtić","kind":"kindergarten"}},{"type":"Feature","geometry":{"type":"Point","coordinates":[20.4507005,44.8063586]},"properties":{"id":"node/13264803617","name":"Futurino International Preschool","kind":"kindergarten"}},{"type":"Feature","geometry":{"type":"Point","coordinates":[20.4511887,44.8069402]},"properties":{"id":"node/13264803618","name":"Kid Genius","kind":"kindergarten"}},{"type":"Feature","geometry":{"type":"Point","coordinates":[20.4854459,44.7633627]},"properties":{"id":"node/13284761001","name":"Azbukica","kind":"kindergarten","address":"Милисава Ђуровића 10a"}},{"type":"Feature","geometry":{"type":"Point","coordinates":[20.4104892,44.840603]},"properties":{"id":"node/13318777915","name":"Дружионица маштаоница","kind":"kindergarten"}},{"type":"Feature","geometry":{"type":"Point","coordinates":[20.418591,44.8207658]},"properties":{"id":"node/13391095013","name":"Вртић животних вештина","kind":"kindergarten"}},{"type":"Feature","geometry":{"type":"Point","coordinates":[20.40897,44.8392215]},"properties":{"id":"node/13611251103","name":"Вила Звончица","kind":"kindergarten"}},{"type":"Feature","geometry":{"type":"Point","coordinates":[20.4527276,44.8276082]},"properties":{"id":"node/13625551801","name":"Intellectum Academy","kind":"school","address":"Булевар војводе Бојовића 14"}},{"type":"Feature","geometry":{"type":"Point","coordinates":[20.4554588,44.8731196]},"properties":{"id":"way/36009911","name":"Основна школа Стеван Сремац","kind":"school","address":"Трг ослобођења 3"}},{"type":"Feature","geometry":{"type":"Point","coordinates":[20.4537895,44.8841234]},"properties":{"id":"way/36011772","name":"ОШ „Раде Драинац”","kind":"school","address":"Ковиловска 1"}},{"type":"Feature","geometry":{"type":"Point","coordinates":[20.4548328,44.8155802]},"properties":{"id":"way/38539665","name":"ОШ „Краљ Петар I”","kind":"school","address":"Маршала Бирјузова 43"}},{"type":"Feature","geometry":{"type":"Point","coordinates":[20.4698563,44.821201]},"properties":{"id":"way/38965054","name":"Спортска гимназија","kind":"school"}},{"type":"Feature","geometry":{"type":"Point","coordinates":[20.6492046,44.8773851]},"properties":{"id":"way/68467810","name":"Машинска школа „Панчево”","kind":"school"}},{"type":"Feature","geometry":{"type":"Point","coordinates":[20.4523677,44.8764719]},"properties":{"id":"way/107759185","name":"ОШ „Јован Ристић”","kind":"school","address":"Беле Бартока 48a"}},{"type":"Feature","geometry":{"type":"Point","coordinates":[20.5158452,44.8123654]},"properties":{"id":"way/149380652","name":"ОШ „Јован Поповић”","kind":"school","address":"Маријане Грегоран 62"}},{"type":"Feature","geometry":{"type":"Point","coordinates":[20.3802011,44.7983137]},"properties":{"id":"way/152985502","name":"ОШ „Бранко Радичевић”","kind":"school","address":"Јурија Гагарина 195"}},{"type":"Feature","geometry":{"type":"Point","coordinates":[20.4525967,44.8184384]},"properties":{"id":"way/154058648","name":"ОШ „Краљ Петар I”","kind":"school","address":"Краља Петра 7"}},{"type":"Feature","geometry":{"type":"Point","coordinates":[20.4721093,44.8143527]},"properties":{"id":"way/161385436","name":"ОШ „Вук Караџић”","kind":"school"}},{"type":"Feature","geometry":{"type":"Point","coordinates":[20.3879927,44.8164989]},"properties":{"id":"way/165804737","name":"ОШ „Борислав Пекић”","kind":"school","address":"Данила Лекића Шпанца 27"}},{"type":"Feature","geometry":{"type":"Point","coordinates":[20.4421381,44.81202]},"properties":{"id":"way/166811054","name":"Техничка школа за дизајн коже (радионица)","kind":"school","address":"Сајмиште 1"}},{"type":"Feature","geometry":{"type":"Point","coordinates":[20.4598594,44.8269617]},"properties":{"id":"way/188331367","name":"Предшколска установа „Липа”","kind":"kindergarten","address":"Солунска 19"}},{"type":"Feature","geometry":{"type":"Point","coordinates":[20.4282777,44.8156123]},"properties":{"id":"way/196504081","name":"Десета гимназија „Михајло Пупин”","kind":"school"}},{"type":"Feature","geometry":{"type":"Point","coordinates":[20.4313752,44.8132302]},"properties":{"id":"way/196504082","name":"ОШ „Јован Дучић”","kind":"school"}},{"type":"Feature","geometry":{"type":"Point","coordinates":[20.4292442,44.8145629]},"properties":{"id":"way/196504083","name":"Вртић Весна","kind":"kindergarten"}},{"type":"Feature","geometry":{"type":"Point","coordinates":[20.4304249,44.8142301]},"properties":{"id":"way/196504084","name":"Вртић Чуперак","kind":"kindergarten"}},{"type":"Feature","geometry":{"type":"Point","coordinates":[20.4288868,44.8112437]},"properties":{"id":"way/198464413","name":"Вртић Зека","kind":"kindergarten"}},{"type":"Feature","geometry":{"type":"Point","coordinates":[20.4259627,44.8081155]},"properties":{"id":"way/199236737","name":"Вртић Лептирић","kind":"kindergarten","address":"Милентија Поповића 34"}},{"type":"Feature","geometry":{"type":"Point","coordinates":[20.4228139,44.8086651]},"properties":{"id":"way/199236740","name":"Вртић Пчелица","kind":"kindergarten","address":"Антифашистичке борбе 75"}},{"type":"Feature","geometry":{"type":"Point","coordinates":[20.4245466,44.8082461]},"properties":{"id":"way/199236742","name":"ОШ „Лаза Костић”","kind":"school","address":"Милентија Поповића 72"}},{"type":"Feature","geometry":{"type":"Point","coordinates":[20.4145603,44.8172331]},"properties":{"id":"way/202664186","name":"Вртић Чигра","kind":"kindergarten","address":"Булевар уметности 25"}},{"type":"Feature","geometry":{"type":"Point","coordinates":[20.4882098,44.7833806]},"properties":{"id":"way/203302753","name":"Vrtić","kind":"kindergarten","address":"Љермонтова 9"}},{"type":"Feature","geometry":{"type":"Point","coordinates":[20.4122679,44.8142929]},"properties":{"id":"way/203389073","name":"Вртић Славуј","kind":"kindergarten","address":"Булевар уметности 31"}},{"type":"Feature","geometry":{"type":"Point","coordinates":[20.4133932,44.8137786]},"properties":{"id":"way/203389075","name":"ОШ „Радоје Домановић”","kind":"school","address":"Булевар уметности 33"}},{"type":"Feature","geometry":{"type":"Point","coordinates":[20.4059829,44.8256753]},"properties":{"id":"way/204171783","name":"ОШ „Иван Гундулић”","kind":"school","address":"Народних хероја 12"}},{"type":"Feature","geometry":{"type":"Point","coordinates":[20.3981578,44.805116]},"properties":{"id":"way/206622844","name":"Предшколска установа „Бисер”","kind":"kindergarten","address":"Јурија Гагарина"}},{"type":"Feature","geometry":{"type":"Point","coordinates":[20.4162186,44.780598]},"properties":{"id":"way/217935765","name":"ОШ Јосиф Панчић","kind":"school","address":"Пожешка 52"}},{"type":"Feature","geometry":{"type":"Point","coordinates":[20.4562514,44.812993]},"properties":{"id":"way/225395184","name":"Филолошка гимназија","kind":"school","address":"Каменичка 2"}},{"type":"Feature","geometry":{"type":"Point","coordinates":[20.4615885,44.7983357]},"properties":{"id":"way/231791010","name":"Медицинска школа","kind":"school","address":"Делиградска 31"}},{"type":"Feature","geometry":{"type":"Point","coordinates":[20.3737752,44.7997748]},"properties":{"id":"way/231864625","name":"Вртић Исток","kind":"kindergarten","address":"Јурија Гагарина 168"}},{"type":"Feature","geometry":{"type":"Point","coordinates":[20.4026471,44.807544]},"properties":{"id":"way/233660043","name":"Руска школа","kind":"school","address":"Булевар Црвене армије 28"}},{"type":"Feature","geometry":{"type":"Point","coordinates":[20.4005964,44.8085554]},"properties":{"id":"way/233661095","name":"Техничка школа „Нови Београд”","kind":"school"}},{"type":"Feature","geometry":{"type":"Point","coordinates":[20.3747714,44.8380145]},"properties":{"id":"way/246772532","name":"Обданиште Зврк","kind":"kindergarten","address":"Словенска 4"}},{"type":"Feature","geometry":{"type":"Point","coordinates":[20.3746499,44.8380794]},"properties":{"id":"way/246772611","name":"Vrtić","kind":"kindergarten","address":"Словенска 2a"}},{"type":"Feature","geometry":{"type":"Point","coordinates":[20.3950015,44.8368803]},"properties":{"id":"way/259278975","name":"ОШ „Раде Кончар”","kind":"school","address":"Златиборска 44"}},{"type":"Feature","geometry":{"type":"Point","coordinates":[20.3956299,44.8377327]},"properties":{"id":"way/259279847","name":"Вртић „Златни бор”","kind":"kindergarten","address":"Златиборска 40a"}},{"type":"Feature","geometry":{"type":"Point","coordinates":[20.4406233,44.7876274]},"properties":{"id":"way/259768747","name":"Војна гимназија","kind":"school"}},{"type":"Feature","geometry":{"type":"Point","coordinates":[20.478163,44.7831381]},"properties":{"id":"way/261970497","name":"Вртић „Мила Јефтовић”","kind":"kindergarten"}},{"type":"Feature","geometry":{"type":"Point","coordinates":[20.4208661,44.7466419]},"properties":{"id":"way/263732203","name":"ОШ „Уједињене нације”","kind":"school"}},{"type":"Feature","geometry":{"type":"Point","coordinates":[20.4244866,44.7457376]},"properties":{"id":"way/264216772","name":"Вртић Дечији гај","kind":"kindergarten","address":"Платана 8"}},{"type":"Feature","geometry":{"type":"Point","coordinates":[20.3791224,44.801924]},"properties":{"id":"way/268079045","name":"ОШ „Кнегиња Милица”","kind":"school","address":"Јурија Гагарина 78"}},{"type":"Feature","geometry":{"type":"Point","coordinates":[20.503548,44.774001]},"properties":{"id":"way/269073821","name":"ОШ „Милан Ђ. Милићевић”","kind":"school","address":"Боривоја Стевановића 27a"}},{"type":"Feature","geometry":{"type":"Point","coordinates":[20.4205566,44.7408343]},"properties":{"id":"way/279864195","name":"ОШ Бранко Ћопић","kind":"school","address":"Видиковачки венац 73"}},{"type":"Feature","geometry":{"type":"Point","coordinates":[20.4348285,44.7874808]},"properties":{"id":"way/284418254","name":"International School of Belgrade","kind":"school","address":"Андре Николића 25"}},{"type":"Feature","geometry":{"type":"Point","coordinates":[20.4347379,44.7897213]},"properties":{"id":"way/284419372","name":"International School of Belgrade","kind":"school","address":"Темишварска 19"}},{"type":"Feature","geometry":{"type":"Point","coordinates":[20.489631,44.7761763]},"properties":{"id":"way/286295824","name":"ОШ „Бранислав Нушић”","kind":"school","address":"Заплањска 45"}},{"type":"Feature","geometry":{"type":"Point","coordinates":[20.506454,44.7833318]},"properties":{"id":"way/286668696","name":"Вртић „Колибри”","kind":"kindergarten","address":"Десет авијатичара 10"}},{"type":"Feature","geometry":{"type":"Point","coordinates":[20.4806893,44.7945726]},"properties":{"id":"way/286674957","name":"ОШ „Краљ Петар II Карађорђевић”","kind":"school","address":"Марулићева 8"}},{"type":"Feature","geometry":{"type":"Point","coordinates":[20.5346862,44.7760843]},"properties":{"id":"way/291957728","name":"ОШ „Драгојло Дудић”","kind":"school","address":"Булевар краља Александра 525"}},{"type":"Feature","geometry":{"type":"Point","coordinates":[20.5137455,44.8154612]},"properties":{"id":"way/292377042","name":"Електротехничка школа Раде Кончар","kind":"school","address":"Сврљишка 1"}},{"type":"Feature","geometry":{"type":"Point","coordinates":[20.4716656,44.8156849]},"properties":{"id":"way/295091832","name":"Вртић Скадарлија","kind":"kindergarten","address":"Џорџа Вашингтона 23"}},{"type":"Feature","geometry":{"type":"Point","coordinates":[20.458081,44.810028]},"properties":{"id":"way/295686328","name":"Предшколска установа „Принцеза Оливера”","kind":"kindergarten"}},{"type":"Feature","geometry":{"type":"Point","coordinates":[20.488061,44.7833864]},"properties":{"id":"way/298120175","name":"Бисери","kind":"kindergarten","address":"Љермонтова 9"}},{"type":"Feature","geometry":{"type":"Point","coordinates":[20.4162381,44.8288757]},"properties":{"id":"way/301771488","name":"ОШ „Краљ Александар I”","kind":"school","address":"Алексиначких рудара 22"}},{"type":"Feature","geometry":{"type":"Point","coordinates":[20.3604956,44.8456292]},"properties":{"id":"way/303169397","name":"Вртић Лазар","kind":"kindergarten"}},{"type":"Feature","geometry":{"type":"Point","coordinates":[20.3852549,44.8412788]},"properties":{"id":"way/305108252","name":"ОШ „Петар Кочић”","kind":"school","address":"Првомајска 79"}},{"type":"Feature","geometry":{"type":"Point","coordinates":[20.3730192,44.8403522]},"properties":{"id":"way/306992873","name":"ОШ „Гаврило Принцип”","kind":"school","address":"Крајишка 34"}},{"type":"Feature","geometry":{"type":"Point","coordinates":[20.4224901,44.7200907]},"properties":{"id":"way/307463429","name":"Основна школа Владимир Роловић","kind":"school"}},{"type":"Feature","geometry":{"type":"Point","coordinates":[20.4957645,44.7953917]},"properties":{"id":"way/307494480","name":"ОШ „Јелена Ћетковић”","kind":"school","address":"Врањска 26"}},{"type":"Feature","geometry":{"type":"Point","coordinates":[20.4781474,44.7580243]},"properties":{"id":"way/308003802","name":"ОШ „Бора Станковић”","kind":"school","address":"Паунова 19a"}},{"type":"Feature","geometry":{"type":"Point","coordinates":[20.4146426,44.8454381]},"properties":{"id":"way/308101910","name":"ОШ „Лазар Саватић”","kind":"school"}},{"type":"Feature","geometry":{"type":"Point","coordinates":[20.4914375,44.7703976]},"properties":{"id":"way/314049769","name":"Škola","kind":"school"}},{"type":"Feature","geometry":{"type":"Point","coordinates":[20.449906,44.7532455]},"properties":{"id":"way/316669494","name":"ОШ „Ђура Јакшић”","kind":"school","address":"Канарево брдо 2"}},{"type":"Feature","geometry":{"type":"Point","coordinates":[20.3797323,44.7969936]},"properties":{"id":"way/317726956","name":"Вртић Сунце","kind":"kindergarten","address":"Нехруова 126"}},{"type":"Feature","geometry":{"type":"Point","coordinates":[20.4108083,44.806066]},"properties":{"id":"way/317727709","name":"Вртић „Тесла-наука за живот”","kind":"kindergarten","address":"Булевар Црвене армије 1"}},{"type":"Feature","geometry":{"type":"Point","coordinates":[20.3808184,44.8438814]},"properties":{"id":"way/318547921","name":"ОШ „Сутјеска”","kind":"school","address":"Задругарска 1"}},{"type":"Feature","geometry":{"type":"Point","coordinates":[20.528238,44.7970247]},"properties":{"id":"way/338208200","name":"Седма београдска гимназија","kind":"school","address":"Шејкина 21a"}},{"type":"Feature","geometry":{"type":"Point","coordinates":[20.5043996,44.7383293]},"properties":{"id":"way/340493810","name":"Основна Школа Војвода Степа","kind":"school","address":"Војводе Степе 520"}},{"type":"Feature","geometry":{"type":"Point","coordinates":[20.5349776,44.818531]},"properties":{"id":"way/341851397","name":"ОШ Милена Павловић Барили","kind":"school","address":"Ромена Ролана 67"}},{"type":"Feature","geometry":{"type":"Point","coordinates":[20.3888822,44.8509249]},"properties":{"id":"way/345053038","name":"ОШ „Соња Маринковић”","kind":"school","address":"Аласка"}},{"type":"Feature","geometry":{"type":"Point","coordinates":[20.4785118,44.7799273]},"properties":{"id":"way/355831014","name":"ОШ „Веселин Маслеша”","kind":"school","address":"Кумодрашка 72"}},{"type":"Feature","geometry":{"type":"Point","coordinates":[20.4763433,44.7807773]},"properties":{"id":"way/355831518","name":"Вртић „Пинокио”","kind":"kindergarten","address":"Богдана Поповића 1"}},{"type":"Feature","geometry":{"type":"Point","coordinates":[20.4993538,44.7731345]},"properties":{"id":"way/377729409","name":"Вртић „Сестре Букумировић”","kind":"kindergarten","address":"Игњата Јоба 69"}},{"type":"Feature","geometry":{"type":"Point","coordinates":[20.497554,44.7686129]},"properties":{"id":"way/377733949","name":"Вртић „Плави Чуперак”","kind":"kindergarten","address":"Драгице Кончар 8a"}},{"type":"Feature","geometry":{"type":"Point","coordinates":[20.4716692,44.7804945]},"properties":{"id":"way/377744850","name":"Дванаеста београдска гимназија","kind":"school","address":"Војводе Степе 82"}},{"type":"Feature","geometry":{"type":"Point","coordinates":[20.5036425,44.7740535]},"properties":{"id":"way/377750897","name":"Škola","kind":"school"}},{"type":"Feature","geometry":{"type":"Point","coordinates":[20.4967726,44.8461439]},"properties":{"id":"way/378955232","name":"Основна школа „Зага Маливук”","kind":"school","address":"Грге Андријановића 18"}},{"type":"Feature","geometry":{"type":"Point","coordinates":[20.4075549,44.7529665]},"properties":{"id":"way/381436893","name":"ОШ „Мирослав Антић” Беле Воде","kind":"school","address":"Црвено барјаче 6"}},{"type":"Feature","geometry":{"type":"Point","coordinates":[20.5102299,44.7955643]},"properties":{"id":"way/382247389","name":"ОШ „Марија Бурсаћ”","kind":"school","address":"Милана Ракића 81"}},{"type":"Feature","geometry":{"type":"Point","coordinates":[20.4886343,44.7589866]},"properties":{"id":"way/382570814","name":"ОШ „Данило Киш”","kind":"school","address":"Генерала Штефаника 6"}},{"type":"Feature","geometry":{"type":"Point","coordinates":[20.5078686,44.7867061]},"properties":{"id":"way/382570833","name":"ОШ „Ћирило и Методије”","kind":"school","address":"Учитељска 58"}},{"type":"Feature","geometry":{"type":"Point","coordinates":[20.4129973,44.8403364]},"properties":{"id":"way/384846393","name":"ОШ „Светозар Милетић”","kind":"school","address":"Немањина"}},{"type":"Feature","geometry":{"type":"Point","coordinates":[20.4790442,44.7911793]},"properties":{"id":"way/387676941","name":"Друга економска школа","kind":"school","address":"Господара Вучића 50"}},{"type":"Feature","geometry":{"type":"Point","coordinates":[20.4752243,44.8031493]},"properties":{"id":"way/387849668","name":"Четрнаеста београдска гимназија","kind":"school","address":"Хаџи-Проданова 5"}},{"type":"Feature","geometry":{"type":"Point","coordinates":[20.4822882,44.8052756]},"properties":{"id":"way/387865663","name":"ОШ „Иван Горан Ковачић”","kind":"school","address":"Војводе Бране 18a"}},{"type":"Feature","geometry":{"type":"Point","coordinates":[20.4779432,44.8095834]},"properties":{"id":"way/387873551","name":"ОШ „Старина Новак”","kind":"school","address":"Кнеза Данила 33-37"}},{"type":"Feature","geometry":{"type":"Point","coordinates":[20.5280309,44.7928957]},"properties":{"id":"way/389989863","name":"ОШ Деспот Стефан Лазаревић","kind":"school","address":"Моме Димића 2"}},{"type":"Feature","geometry":{"type":"Point","coordinates":[20.4701081,44.8002012]},"properties":{"id":"way/390698360","name":"ОШ „Свети Сава”","kind":"school"}},{"type":"Feature","geometry":{"type":"Point","coordinates":[20.397656,44.8001061]},"properties":{"id":"way/391476256","name":"Вртић „Срна”","kind":"kindergarten","address":"Омладинских бригада"}},{"type":"Feature","geometry":{"type":"Point","coordinates":[20.4585733,44.7463091]},"properties":{"id":"way/391970394","name":"Вртић Изворчић","kind":"kindergarten"}},{"type":"Feature","geometry":{"type":"Point","coordinates":[20.4550129,44.7536653]},"properties":{"id":"way/392124943","name":"Средња занатска школа Петар Лековић","kind":"school","address":"Вукасовићева 21a"}},{"type":"Feature","geometry":{"type":"Point","coordinates":[20.4567065,44.750188]},"properties":{"id":"way/392125713","name":"ОШ Иво Андрић","kind":"school","address":"Ивана Мичурина 38a"}},{"type":"Feature","geometry":{"type":"Point","coordinates":[20.4522513,44.7469944]},"properties":{"id":"way/392128027","name":"ОШ „Франце Прешерн”","kind":"school","address":"Станка Пауновића Вељка 45a"}},{"type":"Feature","geometry":{"type":"Point","coordinates":[20.4135257,44.7454605]},"properties":{"id":"way/392375101","name":"Вртић „Плава птица”","kind":"kindergarten","address":"Виноградски венац 42"}},{"type":"Feature","geometry":{"type":"Point","coordinates":[20.4515489,44.7091901]},"properties":{"id":"way/392376245","name":"Основна школа Коста Абрашевић","kind":"school","address":"Милорада Јанковића Доце 34"}},{"type":"Feature","geometry":{"type":"Point","coordinates":[20.4208133,44.7397541]},"properties":{"id":"way/392691531","name":"Вртић Душко Радовић","kind":"kindergarten","address":"Видиковачки венац 79a"}},{"type":"Feature","geometry":{"type":"Point","coordinates":[20.4588704,44.821544]},"properties":{"id":"way/392837807","name":"ОШ „Михаило Петровић Алас”","kind":"school","address":"Господар Јованова 22"}},{"type":"Feature","geometry":{"type":"Point","coordinates":[20.4571508,44.7511085]},"properties":{"id":"way/392864565","name":"Вртић Канаринац","kind":"kindergarten","address":"Ивана Мичурина 27"}},{"type":"Feature","geometry":{"type":"Point","coordinates":[20.4522233,44.7461601]},"properties":{"id":"way/392872256","name":"Вртић „Хајди”","kind":"kindergarten","address":"Станка Пауновића Вељка 45a"}},{"type":"Feature","geometry":{"type":"Point","coordinates":[20.4650678,44.8187135]},"properties":{"id":"way/393061461","name":"ОШ „Скадарлија”","kind":"school","address":"Скадарска 35"}},{"type":"Feature","geometry":{"type":"Point","coordinates":[20.4652574,44.8134768]},"properties":{"id":"way/393184238","name":"ОШ „Дринка Павловић”","kind":"school"}},{"type":"Feature","geometry":{"type":"Point","coordinates":[20.4647388,44.8081751]},"properties":{"id":"way/393196873","name":"Дом ученика средњих школа „Јелица Миловановић”","kind":"school"}},{"type":"Feature","geometry":{"type":"Point","coordinates":[20.4668832,44.8053683]},"properties":{"id":"way/393233961","name":"Трећа београдска гимназија","kind":"school","address":"Његошева 15"}},{"type":"Feature","geometry":{"type":"Point","coordinates":[20.4673764,44.8058524]},"properties":{"id":"way/393233965","name":"ООШ „Владислав Рибникар”","kind":"school"}},{"type":"Feature","geometry":{"type":"Point","coordinates":[20.4660076,44.8156249]},"properties":{"id":"way/393520209","name":"Трговачка школа","kind":"school","address":"Хиландарска 1"}},{"type":"Feature","geometry":{"type":"Point","coordinates":[20.390349,44.804889]},"properties":{"id":"way/393895843","name":"ОШ „Младост”","kind":"school","address":"Гандијева 99"}},{"type":"Feature","geometry":{"type":"Point","coordinates":[20.3961409,44.7996316]},"properties":{"id":"way/394483637","name":"ОШ „20. октобар”","kind":"school","address":"Омладинских бригада 138"}},{"type":"Feature","geometry":{"type":"Point","coordinates":[20.4536984,44.8144046]},"properties":{"id":"way/394732474","name":"Угоститељско-туристичка школа","kind":"school","address":"Југ Богданова 28"}},{"type":"Feature","geometry":{"type":"Point","coordinates":[20.6353162,44.8774532]},"properties":{"id":"way/394749687","name":"ОШ „Васа Живковић”","kind":"school","address":"Карађорђева 87"}},{"type":"Feature","geometry":{"type":"Point","coordinates":[20.4720361,44.8036397]},"properties":{"id":"way/394927168","name":"Вртић Нада Пурић","kind":"kindergarten","address":"Крунска 68"}},{"type":"Feature","geometry":{"type":"Point","coordinates":[20.4563341,44.8106866]},"properties":{"id":"way/395355914","name":"ОШ „Исидора Секулић”","kind":"school","address":"Гаврила Принципа 42"}},{"type":"Feature","geometry":{"type":"Point","coordinates":[20.4591712,44.8256913]},"properties":{"id":"way/395684563","name":"Основна школа „Браћа Барух”","kind":"school"}},{"type":"Feature","geometry":{"type":"Point","coordinates":[20.322992,44.8703957]},"properties":{"id":"way/395695354","name":"Дечији вртић „Бубамара”","kind":"kindergarten"}},{"type":"Feature","geometry":{"type":"Point","coordinates":[20.4629548,44.824668]},"properties":{"id":"way/395903502","name":"ЕТШ „Стари град”","kind":"school","address":"Високог Стевана 37"}},{"type":"Feature","geometry":{"type":"Point","coordinates":[20.4827258,44.8139173]},"properties":{"id":"way/396297787","name":"Железничка техничка школа","kind":"school","address":"Здравка Челара 14"}},{"type":"Feature","geometry":{"type":"Point","coordinates":[20.4741948,44.7938738]},"properties":{"id":"way/396466568","name":"ОШ „Светозар Марковић”","kind":"school","address":"Хаџи-Мелентијева 62"}},{"type":"Feature","geometry":{"type":"Point","coordinates":[20.4760873,44.8188197]},"properties":{"id":"way/396586393","name":"ОШ „Влада Аксентијевић”","kind":"school"}},{"type":"Feature","geometry":{"type":"Point","coordinates":[20.4098027,44.8403539]},"properties":{"id":"way/397260944","name":"ОШ „Мајка Југовића”","kind":"school","address":"Градски парк 9"}},{"type":"Feature","geometry":{"type":"Point","coordinates":[20.478786,44.7991338]},"properties":{"id":"way/398023490","name":"Вртић Мића и Аћим","kind":"kindergarten","address":"Војводе Драгомира 11"}},{"type":"Feature","geometry":{"type":"Point","coordinates":[20.4789823,44.7998537]},"properties":{"id":"way/398023491","name":"ОШ „Јован Миодраговић”","kind":"school","address":"Војводе Драгомира 1"}},{"type":"Feature","geometry":{"type":"Point","coordinates":[20.4639118,44.7778279]},"properties":{"id":"way/399313689","name":"Машана","kind":"kindergarten","address":"Дипломатска колонија 9"}},{"type":"Feature","geometry":{"type":"Point","coordinates":[20.486768,44.7955016]},"properties":{"id":"way/399514096","name":"ОШ „НХ Синиша Николајевић”","kind":"school"}},{"type":"Feature","geometry":{"type":"Point","coordinates":[20.5016179,44.7974865]},"properties":{"id":"way/400259694","name":"ОШ „Вељко Дугошевић”","kind":"school","address":"Милана Ракића 41"}},{"type":"Feature","geometry":{"type":"Point","coordinates":[20.4939212,44.8029108]},"properties":{"id":"way/400620368","name":"Основна школа Бошко Буха","kind":"school","address":"Двадесет прве дивизије 31"}},{"type":"Feature","geometry":{"type":"Point","coordinates":[20.4780921,44.7882745]},"properties":{"id":"way/400902643","name":"Вртић „Наша деца”","kind":"kindergarten","address":"Пиротска 17"}},{"type":"Feature","geometry":{"type":"Point","coordinates":[20.4792005,44.7888007]},"properties":{"id":"way/400902645","name":"ОШ „Доситеј Обрадовић”","kind":"school","address":"Војислава Нановића 2"}},{"type":"Feature","geometry":{"type":"Point","coordinates":[20.4872018,44.7871209]},"properties":{"id":"way/401493528","name":"Вртић Цицибан","kind":"kindergarten","address":"Струмичка 63"}},{"type":"Feature","geometry":{"type":"Point","coordinates":[20.4859649,44.792716]},"properties":{"id":"way/401629097","name":"Основна школа „Н.Х. Душан Дугалић”","kind":"school","address":"Ђердапска 19"}},{"type":"Feature","geometry":{"type":"Point","coordinates":[20.491632,44.7912053]},"properties":{"id":"way/401657813","name":"Азбукица","kind":"kindergarten","address":"Господара Вучића 172"}},{"type":"Feature","geometry":{"type":"Point","coordinates":[20.4976676,44.7860159]},"properties":{"id":"way/401722779","name":"ОШ „Јанко Веселиновић”","kind":"school","address":"Умчарска 2"}},{"type":"Feature","geometry":{"type":"Point","coordinates":[20.4797539,44.763248]},"properties":{"id":"way/401867578","name":"ОШ „Филип Филиповић”","kind":"school","address":"Булевар ослобођења 317"}},{"type":"Feature","geometry":{"type":"Point","coordinates":[20.4674375,44.7843921]},"properties":{"id":"way/401957578","name":"Основна Школа „Карађорђе”","kind":"school","address":"Јове Илића 2"}},{"type":"Feature","geometry":{"type":"Point","coordinates":[20.4742404,44.7741578]},"properties":{"id":"way/401970383","name":"Васпитни дом „Васа Стајић”","kind":"school","address":"Булевар ослобођења 219"}},{"type":"Feature","geometry":{"type":"Point","coordinates":[20.4746935,44.773718]},"properties":{"id":"way/401970388","name":"Вртић Петар Пан","kind":"kindergarten","address":"Јове Илића 144"}},{"type":"Feature","geometry":{"type":"Point","coordinates":[20.4645366,44.775467]},"properties":{"id":"way/402236628","name":"Основна школа Војвода Радомир Путник","kind":"school","address":"Бошка Петровића 6"}},{"type":"Feature","geometry":{"type":"Point","coordinates":[20.4430399,44.7915092]},"properties":{"id":"way/402784114","name":"ОШ „Стефан Немања”","kind":"school","address":"Љубе Јовановића 2a"}},{"type":"Feature","geometry":{"type":"Point","coordinates":[20.4406576,44.7866063]},"properties":{"id":"way/402787547","name":"Škola","kind":"school"}},{"type":"Feature","geometry":{"type":"Point","coordinates":[20.4109811,44.8414857]},"properties":{"id":"way/402835785","name":"Земунска гимназија","kind":"school","address":"Градски парк 1"}},{"type":"Feature","geometry":{"type":"Point","coordinates":[20.4547682,44.7800185]},"properties":{"id":"way/402979602","name":"Четврта београдска гимназија","kind":"school","address":"Теодора Драјзера 25"}},{"type":"Feature","geometry":{"type":"Point","coordinates":[20.4041356,44.8405403]},"properties":{"id":"way/403435817","name":"Висан","kind":"school","address":"Тошин бунар 7a"}},{"type":"Feature","geometry":{"type":"Point","coordinates":[20.4121014,44.7755543]},"properties":{"id":"way/403451262","name":"ОШ Филип Кљајић Фића","kind":"school"}},{"type":"Feature","geometry":{"type":"Point","coordinates":[20.4162403,44.748078]},"properties":{"id":"way/403988716","name":"Вртић Сањалица","kind":"kindergarten","address":"Јабланичка 20"}},{"type":"Feature","geometry":{"type":"Point","coordinates":[20.3957948,44.8503604]},"properties":{"id":"way/404115070","name":"ОШ Горња варош","kind":"school","address":"Добановачка 72"}},{"type":"Feature","geometry":{"type":"Point","coordinates":[20.4198567,44.7833126]},"properties":{"id":"way/404296956","name":"Вртић Свети Сава","kind":"kindergarten","address":"Пожешка"}},{"type":"Feature","geometry":{"type":"Point","coordinates":[20.4121332,44.7799916]},"properties":{"id":"way/404452030","name":"Хемијско-прехрамбена технолошка школа","kind":"school","address":"Љешка 82"}},{"type":"Feature","geometry":{"type":"Point","coordinates":[20.4181952,44.7647137]},"properties":{"id":"way/404555671","name":"ОШ Милош Црњански","kind":"school","address":"Ђорђа Огњановића 2"}},{"type":"Feature","geometry":{"type":"Point","coordinates":[20.4181062,44.780358]},"properties":{"id":"way/404570514","name":"Вртић Радосно детињство","kind":"kindergarten"}},{"type":"Feature","geometry":{"type":"Point","coordinates":[20.4137197,44.7709594]},"properties":{"id":"way/404579863","name":"Вртић Невен","kind":"kindergarten"}},{"type":"Feature","geometry":{"type":"Point","coordinates":[20.4156477,44.7744214]},"properties":{"id":"way/404628042","name":"Вртић Рода","kind":"kindergarten","address":"Београдског батаљона 9"}},{"type":"Feature","geometry":{"type":"Point","coordinates":[20.4241813,44.7793394]},"properties":{"id":"way/404646309","name":"ОШ Бановић Страхиња","kind":"school"}},{"type":"Feature","geometry":{"type":"Point","coordinates":[20.4193127,44.7581818]},"properties":{"id":"way/405004571","name":"ОШ „Љуба Ненадовић” Жарково","kind":"school","address":"Аце Јоксимовића 25"}},{"type":"Feature","geometry":{"type":"Point","coordinates":[20.4231511,44.7579232]},"properties":{"id":"way/405014379","name":"Вртић Кошута","kind":"kindergarten","address":"Димитрија Аврамовића 17"}},{"type":"Feature","geometry":{"type":"Point","coordinates":[20.4223729,44.7288311]},"properties":{"id":"way/405089537","name":"ОШ „14. октобар”","kind":"school"}},{"type":"Feature","geometry":{"type":"Point","coordinates":[20.4210237,44.7276493]},"properties":{"id":"way/405097113","name":"Vrtić","kind":"kindergarten"}},{"type":"Feature","geometry":{"type":"Point","coordinates":[20.4237675,44.7198848]},"properties":{"id":"way/405610379","name":"Вртић Петлић","kind":"kindergarten"}},{"type":"Feature","geometry":{"type":"Point","coordinates":[20.5162237,44.8117431]},"properties":{"id":"way/406011413","name":"Вртић „Бошко Буха”","kind":"kindergarten","address":"Стевана Дукића 30"}},{"type":"Feature","geometry":{"type":"Point","coordinates":[20.5107154,44.8138753]},"properties":{"id":"way/406213662","name":"Вртић Звончица","kind":"kindergarten","address":"Пана Ђукића 10"}},{"type":"Feature","geometry":{"type":"Point","coordinates":[20.5062837,44.8154813]},"properties":{"id":"way/406213667","name":"ОШ „Др Арчибалд Рајс”","kind":"school"}},{"type":"Feature","geometry":{"type":"Point","coordinates":[20.5213746,44.8074718]},"properties":{"id":"way/406322448","name":"Вртић „Славујак”","kind":"kindergarten","address":"Пера Ћетковића 37a"}},{"type":"Feature","geometry":{"type":"Point","coordinates":[20.4839963,44.8143402]},"properties":{"id":"way/406517753","name":"Средња техничка ПТТ школа","kind":"school"}},{"type":"Feature","geometry":{"type":"Point","coordinates":[20.4387035,44.7480122]},"properties":{"id":"way/406854522","name":"Vrtić","kind":"kindergarten"}},{"type":"Feature","geometry":{"type":"Point","coordinates":[20.4400498,44.746667]},"properties":{"id":"way/406855230","name":"ОШ „Никола Тесла”","kind":"school","address":"Старца Милије 10"}},{"type":"Feature","geometry":{"type":"Point","coordinates":[20.4044098,44.8393686]},"properties":{"id":"way/407008796","name":"Правно-пословна школа „Димитрије Давидовић”","kind":"school","address":"Тошин бунар"}},{"type":"Feature","geometry":{"type":"Point","coordinates":[20.5005804,44.8166694]},"properties":{"id":"way/407251293","name":"Škola","kind":"school"}},{"type":"Feature","geometry":{"type":"Point","coordinates":[20.5409136,44.7919003]},"properties":{"id":"way/407476471","name":"ОШ „Павле Савић”","kind":"school","address":"Косте Нађа 25"}},{"type":"Feature","geometry":{"type":"Point","coordinates":[20.5350131,44.8159004]},"properties":{"id":"way/407519003","name":"Вртић Сунцокрети","kind":"kindergarten","address":"Вишњички венац 47a"}},{"type":"Feature","geometry":{"type":"Point","coordinates":[20.4973714,44.8068482]},"properties":{"id":"way/407816092","name":"Обданиште Зора","kind":"kindergarten","address":"Панте Срећковића 10"}},{"type":"Feature","geometry":{"type":"Point","coordinates":[20.3689878,44.8134146]},"properties":{"id":"way/407897256","name":"Вртић Звездана прашина","kind":"kindergarten"}},{"type":"Feature","geometry":{"type":"Point","coordinates":[20.370007,44.8141813]},"properties":{"id":"way/407897257","name":"Основна школа Драган Лукић","kind":"school","address":"Неде Спасојевић 6"}},{"type":"Feature","geometry":{"type":"Point","coordinates":[20.3751673,44.8081993]},"properties":{"id":"way/408673712","name":"ОШ Милан Ракић","kind":"school","address":"Војвођанска 62"}},{"type":"Feature","geometry":{"type":"Point","coordinates":[20.3928066,44.8457823]},"properties":{"id":"way/408747551","name":"Вртић Земунски бисери","kind":"kindergarten","address":"Драгана Ракића 39"}},{"type":"Feature","geometry":{"type":"Point","coordinates":[20.4408679,44.7459377]},"properties":{"id":"way/408941598","name":"Вртић Димитрије Котуровић","kind":"kindergarten","address":"Др Миливоја Петровића 2"}},{"type":"Feature","geometry":{"type":"Point","coordinates":[20.4079322,44.7538342]},"properties":{"id":"way/409329732","name":"Вртић Сунце","kind":"kindergarten","address":"Радивоја Ракоњца 2"}},{"type":"Feature","geometry":{"type":"Point","coordinates":[20.4035993,44.8181662]},"properties":{"id":"way/410105934","name":"ОШ „Ратко Митровић”","kind":"school","address":"Омладинских бригада 58"}},{"type":"Feature","geometry":{"type":"Point","coordinates":[20.4053481,44.8178699]},"properties":{"id":"way/410105936","name":"Вртић Лане","kind":"kindergarten","address":"Булевар Арсенија Чарнојевића 143"}},{"type":"Feature","geometry":{"type":"Point","coordinates":[20.4003502,44.8190235]},"properties":{"id":"way/410109163","name":"ОШ „Ђуро Стругар”","kind":"school"}},{"type":"Feature","geometry":{"type":"Point","coordinates":[20.3980933,44.8197229]},"properties":{"id":"way/410109165","name":"Вртић Ластавица","kind":"kindergarten"}},{"type":"Feature","geometry":{"type":"Point","coordinates":[20.4640446,44.7883431]},"properties":{"id":"way/410799825","name":"ОШ „Војвода Мишић”","kind":"school","address":"Др Милутина Ивковића 4"}},{"type":"Feature","geometry":{"type":"Point","coordinates":[20.4694608,44.7857006]},"properties":{"id":"way/410959516","name":"Вртић Дизниленд","kind":"kindergarten"}},{"type":"Feature","geometry":{"type":"Point","coordinates":[20.4119634,44.760788]},"properties":{"id":"way/411017003","name":"Основна школа Ђорђе Крстић","kind":"school","address":"Живка Настића Бабе 12"}},{"type":"Feature","geometry":{"type":"Point","coordinates":[20.4061688,44.8217947]},"properties":{"id":"way/411122137","name":"Вртић Полетарац","kind":"kindergarten","address":"Народних хероја 19a"}},{"type":"Feature","geometry":{"type":"Point","coordinates":[20.4025413,44.8275235]},"properties":{"id":"way/411155500","name":"Дечији вртић „Петлић”","kind":"kindergarten"}},{"type":"Feature","geometry":{"type":"Point","coordinates":[20.4055786,44.8264723]},"properties":{"id":"way/411159797","name":"Vrtić","kind":"kindergarten","address":"Париске комуне 33a"}},{"type":"Feature","geometry":{"type":"Point","coordinates":[20.4065083,44.8250387]},"properties":{"id":"way/411159802","name":"Вртић Невен","kind":"kindergarten","address":"Народних хероја 12a"}},{"type":"Feature","geometry":{"type":"Point","coordinates":[20.4065675,44.829035]},"properties":{"id":"way/411176389","name":"Графичко-медијска школа","kind":"school","address":"Отона Жупанчича 19"}},{"type":"Feature","geometry":{"type":"Point","coordinates":[20.4034319,44.8288135]},"properties":{"id":"way/411176390","name":"Девета гимназија „Михаило Петровић Алас”","kind":"school","address":"Булевар маршала Толбухина 41"}},{"type":"Feature","geometry":{"type":"Point","coordinates":[20.4079325,44.8229572]},"properties":{"id":"way/411483844","name":"ОШ „Душко Радовић”","kind":"school","address":"Булевар Зорана Ђинђића 112"}},{"type":"Feature","geometry":{"type":"Point","coordinates":[20.4064281,44.8309469]},"properties":{"id":"way/411494442","name":"ОШ „Надежда Петровић”","kind":"school","address":"Луја Адамича 4"}},{"type":"Feature","geometry":{"type":"Point","coordinates":[20.5106107,44.7892659]},"properties":{"id":"way/411710985","name":"Грађевинска техничка школа „Бранко Жежељ”","kind":"school","address":"Хајдук Станкова 2"}},{"type":"Feature","geometry":{"type":"Point","coordinates":[20.5032214,44.7902027]},"properties":{"id":"way/411848768","name":"Фармацеутско-физиотерапеутска школа","kind":"school","address":"Донска 27"}},{"type":"Feature","geometry":{"type":"Point","coordinates":[20.4162658,44.836224]},"properties":{"id":"way/412169592","name":"Вртић Чаролија","kind":"kindergarten","address":"Капетана Радича Петровића 30"}},{"type":"Feature","geometry":{"type":"Point","coordinates":[20.4084835,44.8314979]},"properties":{"id":"way/412183700","name":"ОШ „Марко Орешковић”","kind":"school","address":"Отона Жупанчича 30"}},{"type":"Feature","geometry":{"type":"Point","coordinates":[20.4142806,44.8285638]},"properties":{"id":"way/412196074","name":"Вртић Сунцокрет","kind":"kindergarten","address":"Палмира Тољатија 26a"}},{"type":"Feature","geometry":{"type":"Point","coordinates":[20.5424717,44.8218058]},"properties":{"id":"way/412506810","name":"ОШ Иван Милутиновић","kind":"school","address":"Дечја 1b"}},{"type":"Feature","geometry":{"type":"Point","coordinates":[20.3857268,44.8519328]},"properties":{"id":"way/412982257","name":"Вртић Мали принц","kind":"kindergarten","address":"Карловачка 27"}},{"type":"Feature","geometry":{"type":"Point","coordinates":[20.3839928,44.853268]},"properties":{"id":"way/412982277","name":"Основна школа Сава Јовановић Сирогојно","kind":"school","address":"Призренска 37"}},{"type":"Feature","geometry":{"type":"Point","coordinates":[20.4135354,44.8322957]},"properties":{"id":"way/413008089","name":"Вртић Маја","kind":"kindergarten","address":"Грамшијева 2a"}},{"type":"Feature","geometry":{"type":"Point","coordinates":[20.3769919,44.7308627]},"properties":{"id":"way/413941381","name":"ОШ „Браћа Јерковић”","kind":"school","address":"Стјепана Супанца 15"}},{"type":"Feature","geometry":{"type":"Point","coordinates":[20.3799364,44.7290822]},"properties":{"id":"way/413981545","name":"Вртић „Весељко”","kind":"kindergarten"}},{"type":"Feature","geometry":{"type":"Point","coordinates":[20.3788779,44.727431]},"properties":{"id":"way/414031120","name":"ОШ „Стефан Дечански”","kind":"school","address":"Милана Мијалковића 11"}},{"type":"Feature","geometry":{"type":"Point","coordinates":[20.4630064,44.7113207]},"properties":{"id":"way/415625065","name":"Вртић Језерце","kind":"kindergarten","address":"Едварда Грига 18a"}},{"type":"Feature","geometry":{"type":"Point","coordinates":[20.5288228,44.7591151]},"properties":{"id":"way/422091937","name":"Основна школа Владислав Петковић Дис","kind":"school","address":"Радосава Љумовића 20"}},{"type":"Feature","geometry":{"type":"Point","coordinates":[20.4712424,44.8512691]},"properties":{"id":"way/424824657","name":"Вртић Весељко","kind":"kindergarten","address":"Трајка Грковића 1"}},{"type":"Feature","geometry":{"type":"Point","coordinates":[20.4709153,44.8506742]},"properties":{"id":"way/424824658","name":"ОШ „Васа Пелагић”","kind":"school","address":"Анке Матић 2"}},{"type":"Feature","geometry":{"type":"Point","coordinates":[20.4689871,44.851124]},"properties":{"id":"way/424835868","name":"Вртић Пахуљица","kind":"kindergarten","address":"Славка Колара 1a"}},{"type":"Feature","geometry":{"type":"Point","coordinates":[20.5562394,44.763914]},"properties":{"id":"way/438907250","name":"Vrtić","kind":"kindergarten"}},{"type":"Feature","geometry":{"type":"Point","coordinates":[20.4847796,44.8120675]},"properties":{"id":"way/440419031","name":"Вртић Мали Принц","kind":"kindergarten"}},{"type":"Feature","geometry":{"type":"Point","coordinates":[20.4840936,44.8125938]},"properties":{"id":"way/440419032","name":"ОШ „Ослободиоци Београда”","kind":"school","address":"Прерадовићева 2"}},{"type":"Feature","geometry":{"type":"Point","coordinates":[20.5162891,44.7828597]},"properties":{"id":"way/440730986","name":"Основна школа Десанка Максимовић","kind":"school","address":"Устаничка 246"}},{"type":"Feature","geometry":{"type":"Point","coordinates":[20.5129033,44.7832869]},"properties":{"id":"way/440731960","name":"Вртић Кошута","kind":"kindergarten","address":"Благајска 4"}},{"type":"Feature","geometry":{"type":"Point","coordinates":[20.5317064,44.7901495]},"properties":{"id":"way/440850431","name":"Вртић Маслачак","kind":"kindergarten","address":"Петраркина 3"}},{"type":"Feature","geometry":{"type":"Point","coordinates":[20.5457719,44.79049]},"properties":{"id":"way/440976598","name":"Вртић Звончица","kind":"kindergarten","address":"Љубише Миодраговића 3"}},{"type":"Feature","geometry":{"type":"Point","coordinates":[20.5397786,44.7886247]},"properties":{"id":"way/440978620","name":"Звездица","kind":"kindergarten","address":"Пупинова 4"}},{"type":"Feature","geometry":{"type":"Point","coordinates":[20.487813,44.8444444]},"properties":{"id":"way/441060290","name":"Вртић Мимоза","kind":"kindergarten","address":"Партизански блок улица 1. 4"}},{"type":"Feature","geometry":{"type":"Point","coordinates":[20.4495335,44.8771254]},"properties":{"id":"way/441255715","name":"Вртић Јежурко","kind":"kindergarten","address":"Беле Бартока 27"}},{"type":"Feature","geometry":{"type":"Point","coordinates":[20.4577672,44.8825061]},"properties":{"id":"way/441502598","name":"Vrtić","kind":"kindergarten"}},{"type":"Feature","geometry":{"type":"Point","coordinates":[20.453672,44.8833191]},"properties":{"id":"way/441508148","name":"Vrtić","kind":"kindergarten"}},{"type":"Feature","geometry":{"type":"Point","coordinates":[20.5597382,44.7565757]},"properties":{"id":"way/443863372","name":"Škola","kind":"school"}},{"type":"Feature","geometry":{"type":"Point","coordinates":[20.4739388,44.7576777]},"properties":{"id":"way/444067380","name":"Вртић Љоља","kind":"kindergarten","address":"Саше Симеуновића 26"}},{"type":"Feature","geometry":{"type":"Point","coordinates":[20.4816128,44.8147739]},"properties":{"id":"way/449368743","name":"Средња електротехничка школа „Раде Кончар”","kind":"school","address":"Браће Грим 32"}},{"type":"Feature","geometry":{"type":"Point","coordinates":[20.4387676,44.7904116]},"properties":{"id":"way/465660186","name":"Вртић Краљ Петар I","kind":"kindergarten","address":"Владете Ковачевића 1"}},{"type":"Feature","geometry":{"type":"Point","coordinates":[20.4608626,44.7760881]},"properties":{"id":"way/465660187","name":"Вртић „Царица Милица”","kind":"kindergarten","address":"Хероја Милана Тепића 20"}},{"type":"Feature","geometry":{"type":"Point","coordinates":[20.346527,44.8039156]},"properties":{"id":"way/472218422","name":"ОШ Влада Обрадовић Камени","kind":"school","address":"Добановачка 2a"}},{"type":"Feature","geometry":{"type":"Point","coordinates":[20.2699305,44.7894785]},"properties":{"id":"way/475702989","name":"Основна школа „22. октобар”","kind":"school","address":"Трг Зорана Ђинђића 8"}},{"type":"Feature","geometry":{"type":"Point","coordinates":[20.3682384,44.8588828]},"properties":{"id":"way/477697682","name":"Vrtić","kind":"kindergarten"}},{"type":"Feature","geometry":{"type":"Point","coordinates":[20.3690633,44.8555458]},"properties":{"id":"way/477697683","name":"Вртић Веверица","kind":"kindergarten","address":"Сестара Страин 50"}},{"type":"Feature","geometry":{"type":"Point","coordinates":[20.3678223,44.8560583]},"properties":{"id":"way/477697684","name":"Основна школа Михајло Пупин","kind":"school","address":"Емилије Јакшић 31a"}},{"type":"Feature","geometry":{"type":"Point","coordinates":[20.3545952,44.8453416]},"properties":{"id":"way/478138308","name":"Основна школа „Сава Шумановић”","kind":"school"}},{"type":"Feature","geometry":{"type":"Point","coordinates":[20.3592891,44.8469673]},"properties":{"id":"way/478138323","name":"Вртић Милица","kind":"kindergarten"}},{"type":"Feature","geometry":{"type":"Point","coordinates":[20.2910939,44.7959573]},"properties":{"id":"way/481282540","name":"Основна школа „Вук Караџић”","kind":"school","address":"Братства и јединства 1"}},{"type":"Feature","geometry":{"type":"Point","coordinates":[20.2923289,44.7960607]},"properties":{"id":"way/481282541","name":"Вртић Дуга","kind":"kindergarten"}},{"type":"Feature","geometry":{"type":"Point","coordinates":[20.5077904,44.8038865]},"properties":{"id":"way/481411226","name":"Вртић „Звездани гај”","kind":"kindergarten","address":"Вељка Дугошевића 48"}},{"type":"Feature","geometry":{"type":"Point","coordinates":[20.3240488,44.8692497]},"properties":{"id":"way/482304066","name":"Основна школа „Илија Бирчанин”","kind":"school","address":"Браће Крњешевац 2"}},{"type":"Feature","geometry":{"type":"Point","coordinates":[20.2811517,44.900598]},"properties":{"id":"way/483103733","name":"Основна школа Бранко Радичевић","kind":"school"}},{"type":"Feature","geometry":{"type":"Point","coordinates":[20.4755498,44.7818063]},"properties":{"id":"way/485871665","name":"Средња геолошка и хидрометеролошка школа „Милутин Миланковић”","kind":"school","address":"Есад-пашина 26"}},{"type":"Feature","geometry":{"type":"Point","coordinates":[20.4908191,44.7715899]},"properties":{"id":"way/485971320","name":"Вртић „Чика Јова Змај 2”","kind":"kindergarten"}},{"type":"Feature","geometry":{"type":"Point","coordinates":[20.481554,44.7853291]},"properties":{"id":"way/485974276","name":"Школа за негу лепоте","kind":"school","address":"Јована Суботића 2"}},{"type":"Feature","geometry":{"type":"Point","coordinates":[20.4055505,44.8265161]},"properties":{"id":"way/486975873","name":"Вртић Шећерко","kind":"kindergarten"}},{"type":"Feature","geometry":{"type":"Point","coordinates":[20.2585675,44.7537796]},"properties":{"id":"way/498118425","name":"Основна Школа „Вожд Карађорђе”","kind":"school","address":"Бољевачка 2"}},{"type":"Feature","geometry":{"type":"Point","coordinates":[20.4721068,44.8106555]},"properties":{"id":"way/517801835","name":"Пета београдска гимназија","kind":"school","address":"Илије Гарашанина 24"}},{"type":"Feature","geometry":{"type":"Point","coordinates":[20.3701107,44.8043355]},"properties":{"id":"way/518150335","name":"Вртић „Драган Лаковић”","kind":"kindergarten"}},{"type":"Feature","geometry":{"type":"Point","coordinates":[20.4939058,44.7927856]},"properties":{"id":"way/518333698","name":"Вртић „Луња”","kind":"kindergarten"}},{"type":"Feature","geometry":{"type":"Point","coordinates":[20.37859,44.7976041]},"properties":{"id":"way/524650286","name":"Вртић Звончићи","kind":"kindergarten","address":"Јурија Гагарина 215"}},{"type":"Feature","geometry":{"type":"Point","coordinates":[20.4454499,44.7921943]},"properties":{"id":"way/526415513","name":"Француска школа у Београду","kind":"school","address":"Кабларска 31-35"}},{"type":"Feature","geometry":{"type":"Point","coordinates":[20.4586331,44.7722314]},"properties":{"id":"way/536597434","name":"Школа за дизајн","kind":"school","address":"Крупањска 3"}},{"type":"Feature","geometry":{"type":"Point","coordinates":[20.4607321,44.8103261]},"properties":{"id":"way/536654463","name":"Електротехничка школа „Никола Тесла”","kind":"school"}},{"type":"Feature","geometry":{"type":"Point","coordinates":[20.4690086,44.8180818]},"properties":{"id":"way/547874328","name":"Vrtić","kind":"kindergarten"}},{"type":"Feature","geometry":{"type":"Point","coordinates":[20.4652861,44.8210036]},"properties":{"id":"way/568798332","name":"Прва београдска гимназија","kind":"school","address":"Цара Душана 61"}},{"type":"Feature","geometry":{"type":"Point","coordinates":[20.5230904,44.8079752]},"properties":{"id":"way/571816277","name":"ОШ „Филип Вишњић”","kind":"school","address":"Салвадора Аљендеа 17"}},{"type":"Feature","geometry":{"type":"Point","coordinates":[20.4553073,44.8268296]},"properties":{"id":"way/616292521","name":"Ваздухопловна академија","kind":"school","address":"Булевар војводе Бојовића 2"}},{"type":"Feature","geometry":{"type":"Point","coordinates":[20.3608177,44.7273473]},"properties":{"id":"way/622724482","name":"Техничка школа Железник - Лола","kind":"school","address":"Југословенска 4"}},{"type":"Feature","geometry":{"type":"Point","coordinates":[20.4069299,44.8325439]},"properties":{"id":"way/625248584","name":"Вртић „Маслачак”","kind":"kindergarten","address":"Отона Жупанчича"}},{"type":"Feature","geometry":{"type":"Point","coordinates":[20.4105753,44.82856]},"properties":{"id":"way/626027143","name":"Вртић Изворчић","kind":"kindergarten","address":"Булевар Михајла Пупина 175"}},{"type":"Feature","geometry":{"type":"Point","coordinates":[20.4554776,44.7799338]},"properties":{"id":"way/655772774","name":"Вртић и основна школа Креативно перо","kind":"school","address":"Толстојева 58"}},{"type":"Feature","geometry":{"type":"Point","coordinates":[20.45656,44.8064758]},"properties":{"id":"way/658633548","name":"ОШ „Радојка Лакић”","kind":"school"}},{"type":"Feature","geometry":{"type":"Point","coordinates":[20.4964964,44.7918916]},"properties":{"id":"way/663811559","name":"Архитектонска техничка школа","kind":"school","address":"Војислава Илића 78"}},{"type":"Feature","geometry":{"type":"Point","coordinates":[20.4335337,44.7228504]},"properties":{"id":"way/665108166","name":"Европска пословна школа Милутин Миланковић","kind":"school"}},{"type":"Feature","geometry":{"type":"Point","coordinates":[20.4595604,44.8241037]},"properties":{"id":"way/670980774","name":"Техничка школа Дрво арт","kind":"school","address":"Цара Душана 23"}},{"type":"Feature","geometry":{"type":"Point","coordinates":[20.4952856,44.8037859]},"properties":{"id":"way/672977152","name":"Škola","kind":"school"}},{"type":"Feature","geometry":{"type":"Point","coordinates":[20.4899689,44.8051168]},"properties":{"id":"way/672978133","name":"Зуботехничка школа","kind":"school","address":"Милана Вукоса 63"}},{"type":"Feature","geometry":{"type":"Point","coordinates":[20.496593,44.7984475]},"properties":{"id":"way/672979297","name":"Шеста београдска гимназија","kind":"school","address":"Милана Ракића 33"}},{"type":"Feature","geometry":{"type":"Point","coordinates":[20.509881,44.7653281]},"properties":{"id":"way/674310022","name":"Вртић „Облачак”","kind":"kindergarten"}},{"type":"Feature","geometry":{"type":"Point","coordinates":[20.5362359,44.8893524]},"properties":{"id":"way/675571833","name":"Основна школа „Краљица Марија”","kind":"school","address":"Михаја Еминескуа 65"}},{"type":"Feature","geometry":{"type":"Point","coordinates":[20.5477452,44.8309355]},"properties":{"id":"way/675571837","name":"ОШ Иван Милутиновић","kind":"school","address":"Маршала Тита 101"}},{"type":"Feature","geometry":{"type":"Point","coordinates":[20.5699037,44.8077415]},"properties":{"id":"way/675772649","name":"Škola","kind":"school"}},{"type":"Feature","geometry":{"type":"Point","coordinates":[20.5296216,44.756174]},"properties":{"id":"way/675774850","name":"Вртић „Зека”","kind":"kindergarten"}},{"type":"Feature","geometry":{"type":"Point","coordinates":[20.4869504,44.7362902]},"properties":{"id":"way/675827207","name":"Основна школа Јајинци","kind":"school","address":"Илије Петровића 12"}},{"type":"Feature","geometry":{"type":"Point","coordinates":[20.4984597,44.7972711]},"properties":{"id":"way/676153322","name":"Škola","kind":"school"}},{"type":"Feature","geometry":{"type":"Point","coordinates":[20.4493553,44.7854371]},"properties":{"id":"way/678961461","name":"Вртић „Грофица Олга”","kind":"kindergarten","address":"Ужичка 18"}},{"type":"Feature","geometry":{"type":"Point","coordinates":[20.5971852,44.8121427]},"properties":{"id":"way/679004163","name":"ОШ Иван Милутиновић","kind":"school"}},{"type":"Feature","geometry":{"type":"Point","coordinates":[20.4064039,44.8260652]},"properties":{"id":"way/679294198","name":"ОШ „Нови Београд”","kind":"school","address":"Народних хероја 12"}},{"type":"Feature","geometry":{"type":"Point","coordinates":[20.5087603,44.7021744]},"properties":{"id":"way/679726307","name":"Основна школа „Васа Чарапић”","kind":"school","address":"Авалска 48a"}},{"type":"Feature","geometry":{"type":"Point","coordinates":[20.4968534,44.7214439]},"properties":{"id":"way/679802872","name":"Раковичка школа (основна школа)","kind":"school","address":"Булевар ЈНА 256"}},{"type":"Feature","geometry":{"type":"Point","coordinates":[20.3204067,44.7272748]},"properties":{"id":"way/679818315","name":"Основна школа Карађорђе","kind":"school","address":"Вука Караџића 11"}},{"type":"Feature","geometry":{"type":"Point","coordinates":[20.5549322,44.700487]},"properties":{"id":"way/679868986","name":"Основна школа „Васа Чарапић”","kind":"school"}},{"type":"Feature","geometry":{"type":"Point","coordinates":[20.5813045,44.7327216]},"properties":{"id":"way/680030632","name":"Основна школа „Никола Тесла” - ИО Лештане","kind":"school"}},{"type":"Feature","geometry":{"type":"Point","coordinates":[20.3760873,44.7230641]},"properties":{"id":"way/680235862","name":"Вртић „Плави чуперак”","kind":"kindergarten","address":"Свете Милутиновића 21"}},{"type":"Feature","geometry":{"type":"Point","coordinates":[20.4362935,44.772028]},"properties":{"id":"way/681461575","name":"Чаробна кућица","kind":"kindergarten","address":"Пионирска 28"}},{"type":"Feature","geometry":{"type":"Point","coordinates":[20.451631,44.714551]},"properties":{"id":"way/682021528","name":"Вртић Школица","kind":"kindergarten","address":"Јосипа Теларевића 1"}},{"type":"Feature","geometry":{"type":"Point","coordinates":[20.4999169,44.8039627]},"properties":{"id":"way/683540727","name":"Средња медицинска школа Звездара","kind":"school","address":"Панчина 7"}},{"type":"Feature","geometry":{"type":"Point","coordinates":[20.405143,44.8268282]},"properties":{"id":"way/684661516","name":"Вртић Срећко","kind":"kindergarten"}},{"type":"Feature","geometry":{"type":"Point","coordinates":[20.4482059,44.7897502]},"properties":{"id":"way/686021494","name":"Вртић Света Петка","kind":"kindergarten","address":"Топчидерски венац 1"}},{"type":"Feature","geometry":{"type":"Point","coordinates":[20.4186032,44.7655463]},"properties":{"id":"way/686978231","name":"Вртић Бајка","kind":"kindergarten"}},{"type":"Feature","geometry":{"type":"Point","coordinates":[20.4465636,44.7458017]},"properties":{"id":"way/688874752","name":"Škola","kind":"school"}},{"type":"Feature","geometry":{"type":"Point","coordinates":[20.5143699,44.8105992]},"properties":{"id":"way/688915187","name":"ОШ „Стеван Дукић”","kind":"school","address":"Дантеова 52"}},{"type":"Feature","geometry":{"type":"Point","coordinates":[20.4407898,44.7858477]},"properties":{"id":"way/689014075","name":"Škola","kind":"school"}},{"type":"Feature","geometry":{"type":"Point","coordinates":[20.487332,44.7585208]},"properties":{"id":"way/690601752","name":"Вртић „Мала сирена”","kind":"kindergarten","address":"Каплара Момчила Гаврића 14"}},{"type":"Feature","geometry":{"type":"Point","coordinates":[20.3782026,44.8078385]},"properties":{"id":"way/696963113","name":"ОШ Јован Стерија Поповић","kind":"school","address":"Војвођанска 61"}},{"type":"Feature","geometry":{"type":"Point","coordinates":[20.6000433,44.7474536]},"properties":{"id":"way/704555390","name":"ОШ „Никола Тесла”","kind":"school"}},{"type":"Feature","geometry":{"type":"Point","coordinates":[20.5986,44.7480919]},"properties":{"id":"way/704555391","name":"Vrtić","kind":"kindergarten"}},{"type":"Feature","geometry":{"type":"Point","coordinates":[20.4615732,44.8092222]},"properties":{"id":"way/712531573","name":"Математичка гимназија","kind":"school"}},{"type":"Feature","geometry":{"type":"Point","coordinates":[20.5319224,44.7884804]},"properties":{"id":"way/721380511","name":"Сунце","kind":"kindergarten"}},{"type":"Feature","geometry":{"type":"Point","coordinates":[20.407761,44.7783636]},"properties":{"id":"way/737035925","name":"Вртић „Царић”","kind":"kindergarten"}},{"type":"Feature","geometry":{"type":"Point","coordinates":[20.3477888,44.8032546]},"properties":{"id":"way/743732822","name":"Балончићи","kind":"kindergarten","address":"Румска 2"}},{"type":"Feature","geometry":{"type":"Point","coordinates":[20.6041941,44.7278957]},"properties":{"id":"way/753702606","name":"ОШ „Никола Тесла”","kind":"school"}},{"type":"Feature","geometry":{"type":"Point","coordinates":[20.4542955,44.7804721]},"properties":{"id":"way/766651720","name":"Chartwell International Lower Primary School","kind":"school","address":"Толстојева 54"}},{"type":"Feature","geometry":{"type":"Point","coordinates":[20.4530338,44.7802742]},"properties":{"id":"way/766651722","name":"Chartwell International School","kind":"kindergarten"}},{"type":"Feature","geometry":{"type":"Point","coordinates":[20.455729,44.7807244]},"properties":{"id":"way/766651724","name":"Chartwell International Secondary School","kind":"school","address":"Ужичка 48a"}},{"type":"Feature","geometry":{"type":"Point","coordinates":[20.410234,44.8265861]},"properties":{"id":"way/789711312","name":"Средња туристичка школа","kind":"school","address":"Отона Жупанчича 4"}},{"type":"Feature","geometry":{"type":"Point","coordinates":[20.4258231,44.7771049]},"properties":{"id":"way/799419713","name":"Образовни кампус „Руђер Бошковић”","kind":"school","address":"Кнеза Вишеслава 17"}},{"type":"Feature","geometry":{"type":"Point","coordinates":[20.422299,44.7279166]},"properties":{"id":"way/803083859","name":"Гимназија „Патријарх Павле”","kind":"school"}},{"type":"Feature","geometry":{"type":"Point","coordinates":[20.423118,44.7283814]},"properties":{"id":"way/803083860","name":"Škola","kind":"school"}},{"type":"Feature","geometry":{"type":"Point","coordinates":[20.4266864,44.7692778]},"properties":{"id":"way/804585433","name":"Vrtić","kind":"kindergarten"}},{"type":"Feature","geometry":{"type":"Point","coordinates":[20.426898,44.7324723]},"properties":{"id":"way/805817777","name":"ОШ „14. октобар”","kind":"school","address":"Седамнаестог октобра 20"}},{"type":"Feature","geometry":{"type":"Point","coordinates":[20.3741615,44.8072859]},"properties":{"id":"way/817633619","name":"Вртић Љубичица","kind":"kindergarten","address":"Војвођанска 72"}},{"type":"Feature","geometry":{"type":"Point","coordinates":[20.3822201,44.8119985]},"properties":{"id":"way/817644074","name":"Вртић Бамби","kind":"kindergarten"}},{"type":"Feature","geometry":{"type":"Point","coordinates":[20.5065507,44.7875995]},"properties":{"id":"way/828876193","name":"Вртић „Жубор”","kind":"kindergarten","address":"Др Велизара Косановића 43"}},{"type":"Feature","geometry":{"type":"Point","coordinates":[20.4160836,44.7780678]},"properties":{"id":"way/829242121","name":"ОШ Милоје Павловић","kind":"school"}},{"type":"Feature","geometry":{"type":"Point","coordinates":[20.4964834,44.7864843]},"properties":{"id":"way/830867058","name":"Вртић 1001 радост","kind":"kindergarten"}},{"type":"Feature","geometry":{"type":"Point","coordinates":[20.50594,44.7806533]},"properties":{"id":"way/830868242","name":"Основна Школа „Стеван Синђелић”","kind":"school","address":"Милића Ракића 1"}},{"type":"Feature","geometry":{"type":"Point","coordinates":[20.4965736,44.7824624]},"properties":{"id":"way/830869625","name":"Вртић „Шећерко”","kind":"kindergarten","address":"Владимира Томановића 25"}},{"type":"Feature","geometry":{"type":"Point","coordinates":[20.4617156,44.7733967]},"properties":{"id":"way/843577772","name":"Škola","kind":"school"}},{"type":"Feature","geometry":{"type":"Point","coordinates":[20.4631582,44.8263137]},"properties":{"id":"way/865043849","name":"Вртић „Звончић”","kind":"kindergarten"}},{"type":"Feature","geometry":{"type":"Point","coordinates":[20.4646262,44.7793669]},"properties":{"id":"way/914483056","name":"Chartwell Upper Secondary School","kind":"school","address":"Александра Стамболиског 21"}},{"type":"Feature","geometry":{"type":"Point","coordinates":[20.4088975,44.8235633]},"properties":{"id":"way/927815288","name":"Вртић „Наша радост”","kind":"kindergarten","address":"Булевар Зорана Ђинђића 114"}},{"type":"Feature","geometry":{"type":"Point","coordinates":[20.4178205,44.8390824]},"properties":{"id":"way/927815295","name":"Вртић „Мала сирена”","kind":"kindergarten"}},{"type":"Feature","geometry":{"type":"Point","coordinates":[20.5119664,44.8140183]},"properties":{"id":"way/956047980","name":"Вртић „Бисери”","kind":"kindergarten","address":"Срнетичка 22"}},{"type":"Feature","geometry":{"type":"Point","coordinates":[20.5105834,44.8140171]},"properties":{"id":"way/956047988","name":"Вртић „Плави чуперак”","kind":"kindergarten","address":"Диљска 17"}},{"type":"Feature","geometry":{"type":"Point","coordinates":[20.5010736,44.7683378]},"properties":{"id":"way/963245164","name":"Предшколска установа „Змајчићи”","kind":"kindergarten"}},{"type":"Feature","geometry":{"type":"Point","coordinates":[20.644313,44.8685364]},"properties":{"id":"way/967400307","name":"Електротехничка школа „Никола Тесла”","kind":"school","address":"Максима Горког 7"}},{"type":"Feature","geometry":{"type":"Point","coordinates":[20.6376278,44.8706053]},"properties":{"id":"way/967400512","name":"Гимназија „Урош Предић”","kind":"school"}},{"type":"Feature","geometry":{"type":"Point","coordinates":[20.4575971,44.8710227]},"properties":{"id":"way/968738318","name":"Вртић „Цврчак”","kind":"kindergarten"}},{"type":"Feature","geometry":{"type":"Point","coordinates":[20.4606868,44.8025048]},"properties":{"id":"way/974475373","name":"Škola","kind":"school"}},{"type":"Feature","geometry":{"type":"Point","coordinates":[20.4602143,44.8027146]},"properties":{"id":"way/974475376","name":"Основна школа „Петар Петровић Његош”","kind":"school","address":"Ресавска 61"}},{"type":"Feature","geometry":{"type":"Point","coordinates":[20.3882682,44.8196438]},"properties":{"id":"way/975254897","name":"Вртић „Врабац”","kind":"kindergarten"}},{"type":"Feature","geometry":{"type":"Point","coordinates":[20.4190266,44.7391722]},"properties":{"id":"way/976690682","name":"Вртић „Орашчић”","kind":"kindergarten"}},{"type":"Feature","geometry":{"type":"Point","coordinates":[20.4559695,44.756851]},"properties":{"id":"way/980368486","name":"Пета економска школа „Раковица”","kind":"school","address":"Хасанагинице 8"}},{"type":"Feature","geometry":{"type":"Point","coordinates":[20.4132016,44.7795097]},"properties":{"id":"way/986886642","name":"Тринаеста београдска гимназија","kind":"school","address":"Љешка 47"}},{"type":"Feature","geometry":{"type":"Point","coordinates":[20.5066239,44.7943713]},"properties":{"id":"way/1009138862","name":"Вртић Плави чуперак","kind":"kindergarten"}},{"type":"Feature","geometry":{"type":"Point","coordinates":[20.5085349,44.7816912]},"properties":{"id":"way/1018871185","name":"Вртић „Чигра”","kind":"kindergarten","address":"Устаничка 194a"}},{"type":"Feature","geometry":{"type":"Point","coordinates":[20.4310065,44.7508833]},"properties":{"id":"way/1031389574","name":"Вртић „Филмић”","kind":"kindergarten"}},{"type":"Feature","geometry":{"type":"Point","coordinates":[20.4933688,44.7768632]},"properties":{"id":"way/1037316331","name":"Вртић Бреза","kind":"kindergarten","address":"Милорада Умјеновића 25"}},{"type":"Feature","geometry":{"type":"Point","coordinates":[20.6426769,44.8724184]},"properties":{"id":"way/1040590127","name":"ОШ „Јован Јовановић Змај”","kind":"school"}},{"type":"Feature","geometry":{"type":"Point","coordinates":[20.6478066,44.8765973]},"properties":{"id":"way/1040689986","name":"Техничка школа „23. мај”","kind":"school"}},{"type":"Feature","geometry":{"type":"Point","coordinates":[20.6465718,44.8758255]},"properties":{"id":"way/1040689987","name":"ОШ „Стевица Јовановић”","kind":"school"}},{"type":"Feature","geometry":{"type":"Point","coordinates":[20.3798278,44.8595569]},"properties":{"id":"way/1052457032","name":"Саобраћајно Техничка Школа","kind":"school","address":"Цара Душана 262"}},{"type":"Feature","geometry":{"type":"Point","coordinates":[20.5805217,44.7358909]},"properties":{"id":"way/1067744989","name":"ОШ Никола Тесла","kind":"school"}},{"type":"Feature","geometry":{"type":"Point","coordinates":[20.3736948,44.8351761]},"properties":{"id":"way/1086983136","name":"Политехника - Школа за нове технологоије","kind":"school","address":"Змајева 14"}},{"type":"Feature","geometry":{"type":"Point","coordinates":[20.4998859,44.8412144]},"properties":{"id":"way/1091680792","name":"Пољопривредна школа са домом ученика ПК „Београд”","kind":"school","address":"Панчевачки пут 39"}},{"type":"Feature","geometry":{"type":"Point","coordinates":[20.5007211,44.7425019]},"properties":{"id":"way/1115265939","name":"Вртић Невен","kind":"kindergarten","address":"Мајска 9"}},{"type":"Feature","geometry":{"type":"Point","coordinates":[20.4811603,44.8135726]},"properties":{"id":"way/1116941117","name":"Вртић „Малецка”","kind":"kindergarten"}},{"type":"Feature","geometry":{"type":"Point","coordinates":[20.4929553,44.725798]},"properties":{"id":"way/1119048356","name":"Вртић Меда - Жута кућа","kind":"kindergarten","address":"Булевар ЈНА 204"}},{"type":"Feature","geometry":{"type":"Point","coordinates":[20.5080253,44.7909575]},"properties":{"id":"way/1121907606","name":"Вртић Весељко","kind":"kindergarten","address":"Др Велизара Косановића 7"}},{"type":"Feature","geometry":{"type":"Point","coordinates":[20.4890782,44.7877347]},"properties":{"id":"way/1122957534","name":"Осма београдска гимназија","kind":"school","address":"Грчића Миленка 71"}},{"type":"Feature","geometry":{"type":"Point","coordinates":[20.4367447,44.7921817]},"properties":{"id":"way/1154853453","name":"Вртић Пчелица","kind":"kindergarten"}},{"type":"Feature","geometry":{"type":"Point","coordinates":[20.3749474,44.8194948]},"properties":{"id":"way/1162510484","name":"Vrtić","kind":"kindergarten"}},{"type":"Feature","geometry":{"type":"Point","coordinates":[20.4543891,44.7857473]},"properties":{"id":"way/1224606195","name":"Chartwell International School","kind":"school","address":"Лацковићева 6"}},{"type":"Feature","geometry":{"type":"Point","coordinates":[20.4556498,44.7860403]},"properties":{"id":"way/1224606199","name":"Приватна гимназија Креативно перо","kind":"school"}},{"type":"Feature","geometry":{"type":"Point","coordinates":[20.4958185,44.7656719]},"properties":{"id":"way/1225537592","name":"Vrtić","kind":"kindergarten"}},{"type":"Feature","geometry":{"type":"Point","coordinates":[20.5014478,44.7643332]},"properties":{"id":"way/1237515462","name":"Вртић „Замак”","kind":"kindergarten","address":"Клинска 14"}},{"type":"Feature","geometry":{"type":"Point","coordinates":[20.5123999,44.7923568]},"properties":{"id":"way/1247685531","name":"Вртић „Лане”","kind":"kindergarten"}},{"type":"Feature","geometry":{"type":"Point","coordinates":[20.5226684,44.7790713]},"properties":{"id":"way/1250818083","name":"Вртић „Дечији луг”","kind":"kindergarten","address":"Павла Васића 2a"}},{"type":"Feature","geometry":{"type":"Point","coordinates":[20.4194197,44.8026004]},"properties":{"id":"way/1259371955","name":"Infomation Technology School","kind":"school"}},{"type":"Feature","geometry":{"type":"Point","coordinates":[20.4347694,44.7606704]},"properties":{"id":"way/1266412895","name":"Вртић „Пионирски град”","kind":"kindergarten","address":"Кнеза Вишеслава 27"}},{"type":"Feature","geometry":{"type":"Point","coordinates":[20.4561466,44.82588]},"properties":{"id":"way/1282375151","name":"Предшколска установа „Дунавско обданиште”","kind":"kindergarten"}},{"type":"Feature","geometry":{"type":"Point","coordinates":[20.4580249,44.8211114]},"properties":{"id":"way/1285902419","name":"Предшколска установа „Лептирић”","kind":"kindergarten"}},{"type":"Feature","geometry":{"type":"Point","coordinates":[20.4582393,44.8209508]},"properties":{"id":"way/1285902420","name":"Предшколска установа „Вила”","kind":"kindergarten"}},{"type":"Feature","geometry":{"type":"Point","coordinates":[20.4583837,44.8026786]},"properties":{"id":"way/1298783607","name":"Гимназија „Свети Сава”","kind":"school"}},{"type":"Feature","geometry":{"type":"Point","coordinates":[20.4775382,44.7588693]},"properties":{"id":"way/1303322537","name":"Кућа веверица","kind":"kindergarten","address":"Макаријева 1a"}},{"type":"Feature","geometry":{"type":"Point","coordinates":[20.4867585,44.7785857]},"properties":{"id":"way/1313537594","name":"Вртић Чика Андра","kind":"kindergarten","address":"Заплањска 16v"}},{"type":"Feature","geometry":{"type":"Point","coordinates":[20.4846668,44.7806493]},"properties":{"id":"way/1314716124","name":"Основна школа Миодраг Матић","kind":"school","address":"Браће Јерковић 5"}},{"type":"Feature","geometry":{"type":"Point","coordinates":[20.4837288,44.8135342]},"properties":{"id":"way/1361697520","name":"Škola","kind":"school"}},{"type":"Feature","geometry":{"type":"Point","coordinates":[20.4743684,44.809977]},"properties":{"id":"way/1367374914","name":"Вртић „Полетарац”","kind":"kindergarten","address":"Двадесет седмог марта 46"}},{"type":"Feature","geometry":{"type":"Point","coordinates":[20.4981554,44.804833]},"properties":{"id":"way/1375821010","name":"ОШ „1300 каплара”","kind":"school","address":"Панчина 1"}},{"type":"Feature","geometry":{"type":"Point","coordinates":[20.4815502,44.7944734]},"properties":{"id":"way/1376962647","name":"Центар за ликовно образовање","kind":"school","address":"Шуматовачка 122"}},{"type":"Feature","geometry":{"type":"Point","coordinates":[20.383424,44.8535887]},"properties":{"id":"way/1390228072","name":"ОШ „Радивој Поповић”","kind":"school"}},{"type":"Feature","geometry":{"type":"Point","coordinates":[20.4154066,44.7748324]},"properties":{"id":"way/1390482115","name":"Средња школа „Артимедија”","kind":"school"}},{"type":"Feature","geometry":{"type":"Point","coordinates":[20.4541212,44.807007]},"properties":{"id":"way/1435681421","name":"Предшколска установа „Цар Душан”","kind":"kindergarten"}},{"type":"Feature","geometry":{"type":"Point","coordinates":[20.4544766,44.8080504]},"properties":{"id":"way/1435681422","name":"ОШ „Исидора Секулић”","kind":"school"}},{"type":"Feature","geometry":{"type":"Point","coordinates":[20.4654182,44.8163395]},"properties":{"id":"way/1461607891","name":"Прва економска школа","kind":"school","address":"Цетињска 5-7"}},{"type":"Feature","geometry":{"type":"Point","coordinates":[20.3860748,44.8546901]},"properties":{"id":"way/1475070700","name":"Школа за ученике оштећеног вида „Вељко Рамадановић”","kind":"school"}},{"type":"Feature","geometry":{"type":"Point","coordinates":[20.4711009,44.7870799]},"properties":{"id":"way/1505761278","name":"Вртић Биби","kind":"kindergarten"}},{"type":"Feature","geometry":{"type":"Point","coordinates":[20.4882098,44.7833806]},"properties":{"id":"relation/3964020","name":"Vrtić","kind":"kindergarten"}},{"type":"Feature","geometry":{"type":"Point","coordinates":[20.4800071,44.7983533]},"properties":{"id":"relation/10812000","name":"Техничка школа ГСП","kind":"school","address":"Радослава Грујића 2"}},{"type":"Feature","geometry":{"type":"Point","coordinates":[20.4975808,44.8070226]},"properties":{"id":"relation/18959981","name":"Vrtić","kind":"kindergarten","address":"Панте Срећковића 10"}}]}